{
  "type": "FeatureCollection",
  "features": [
    {
      "type": "Feature",
      "properties": {
        "name": "Lake Tahoe loop route",
        "source": "Manual route sketch from public ride notes"
      },
      "geometry": {
        "type": "LineString",
        "coordinates": [
          [-120.0230, 39.2370],
          [-119.9720, 39.2510],
          [-119.9300, 39.1980],
          [-119.9410, 39.0840],
          [-119.9470, 38.9840],
          [-119.9390, 38.9690],
          [-119.9930, 38.9390],
          [-120.0500, 38.9330],
          [-120.1100, 38.9540],
          [-120.1300, 39.0670],
          [-120.1610, 39.0860],
          [-120.1430, 39.1670],
          [-120.0830, 39.2240],
          [-120.0230, 39.2370]
        ]
      }
    }
  ]
}
