{"type":"FeatureCollection","features":[{"type":"Feature","properties":{"name":"south-san-jose-to-cupertino-loop-2025","source":"https://www.strava.com/activities/15574563693"},"geometry":{"type":"LineString","coordinates":[[-121.80366000000001,37.24586],[-121.80361,37.24586],[-121.80377000000001,37.24579],[-121.80405,37.246010000000005],[-121.80421000000001,37.24595],[-121.80430000000001,37.24588],[-121.80431000000002,37.245830000000005],[-121.80435000000001,37.2455],[-121.80430000000001,37.24488],[-121.80431000000002,37.24419],[-121.80421000000001,37.24334],[-121.80417000000001,37.24322],[-121.80413000000001,37.24293],[-121.8041,37.242830000000005],[-121.80412000000001,37.24246],[-121.8041,37.24197],[-121.80411000000001,37.24184],[-121.80406,37.24105],[-121.80404000000001,37.24007],[-121.80401,37.23969],[-121.80400000000002,37.23895],[-121.80401,37.23883],[-121.80401,37.2381],[-121.80397,37.237640000000006],[-121.80398000000001,37.23736],[-121.80399000000001,37.237280000000005],[-121.80402000000001,37.237230000000004],[-121.80406,37.237170000000006],[-121.80414,37.237120000000004],[-121.80423,37.23709],[-121.80432,37.23709],[-121.80873000000001,37.23709],[-121.81016000000001,37.23707],[-121.81187000000001,37.237080000000006],[-121.81278,37.23704],[-121.8156,37.23704],[-121.81623,37.23707],[-121.81731,37.23716],[-121.81783000000001,37.23724],[-121.81909000000002,37.23751],[-121.81982,37.23763],[-121.82044,37.237700000000004],[-121.82142,37.237730000000006],[-121.82197000000001,37.23772],[-121.82216000000001,37.23774],[-121.82246,37.23769],[-121.82261000000001,37.23767],[-121.82461,37.23762],[-121.82497000000001,37.23762],[-121.82611000000001,37.237570000000005],[-121.82656000000001,37.23754],[-121.82727000000001,37.2374],[-121.82812000000001,37.237170000000006],[-121.82860000000001,37.23706],[-121.82926,37.236990000000006],[-121.83041000000001,37.23696],[-121.83115000000001,37.23698],[-121.83270000000002,37.236990000000006],[-121.83295000000001,37.23697000000001],[-121.83373000000002,37.237],[-121.83436,37.237],[-121.83563000000001,37.23695],[-121.83666000000001,37.23697000000001],[-121.8375,37.236940000000004],[-121.83814000000001,37.23695],[-121.83839,37.23693],[-121.83988000000001,37.23693],[-121.84106000000001,37.23695],[-121.84177000000001,37.237],[-121.84298000000001,37.23716],[-121.84368,37.23729],[-121.84471,37.23753],[-121.8452,37.23763],[-121.84616000000001,37.237860000000005],[-121.84693000000001,37.238020000000006],[-121.84795000000001,37.23825],[-121.8486,37.23843],[-121.85017,37.23881],[-121.85069000000001,37.2389],[-121.85109000000001,37.23899],[-121.85151,37.239110000000004],[-121.85362,37.239560000000004],[-121.85386000000001,37.23964],[-121.85475000000001,37.239850000000004],[-121.85558,37.24002],[-121.85711,37.240410000000004],[-121.85763000000001,37.24051],[-121.85776000000001,37.24056],[-121.85801000000001,37.240680000000005],[-121.85833000000001,37.24078],[-121.85875000000001,37.241],[-121.85905000000001,37.24118],[-121.85933000000001,37.24138000000001],[-121.85960000000001,37.241620000000005],[-121.85988,37.241780000000006],[-121.86004000000001,37.24197],[-121.86022000000001,37.24226],[-121.86027000000001,37.24231],[-121.86037,37.242340000000006],[-121.86047,37.24233],[-121.86091,37.24217],[-121.86120000000001,37.2421],[-121.86138000000001,37.242000000000004],[-121.86166000000001,37.241910000000004],[-121.86194,37.24179],[-121.86224000000001,37.24175],[-121.86285000000001,37.241730000000004],[-121.86333,37.241760000000006],[-121.86375000000001,37.24183],[-121.86462000000002,37.24206],[-121.86494,37.24212],[-121.86520000000002,37.242200000000004],[-121.86553,37.242270000000005],[-121.86594000000001,37.2424],[-121.86762000000002,37.242760000000004],[-121.86885000000001,37.243050000000004],[-121.86898000000001,37.24306],[-121.86979000000001,37.24327],[-121.87016000000001,37.24334],[-121.87055000000001,37.243390000000005],[-121.87107,37.24342],[-121.87150000000001,37.2434],[-121.87180000000001,37.24335],[-121.87196000000002,37.24331],[-121.87209000000001,37.24325],[-121.87270000000001,37.243120000000005],[-121.87360000000001,37.24287],[-121.87441000000001,37.24273],[-121.87477000000001,37.24271],[-121.87490000000001,37.242720000000006],[-121.87535000000001,37.242700000000006],[-121.87608000000002,37.242720000000006],[-121.87678000000001,37.242760000000004],[-121.87727000000001,37.242760000000004],[-121.87803000000001,37.24268],[-121.87835000000001,37.242610000000006],[-121.87896,37.242360000000005],[-121.87919000000001,37.242250000000006],[-121.87941000000001,37.2421],[-121.87968000000001,37.241890000000005],[-121.88042000000002,37.24119],[-121.88055000000001,37.241080000000004],[-121.88084,37.2409],[-121.88147000000001,37.240610000000004],[-121.88179000000001,37.24044],[-121.88202000000001,37.24033],[-121.88235000000002,37.240210000000005],[-121.88357,37.239850000000004],[-121.88372000000001,37.23978],[-121.88414000000002,37.239540000000005],[-121.88439000000001,37.239360000000005],[-121.88467000000001,37.2391],[-121.88476000000001,37.23899],[-121.88505,37.23861],[-121.88525000000001,37.238420000000005],[-121.88554,37.23823],[-121.88573000000001,37.238130000000005],[-121.88594,37.23807],[-121.88628000000001,37.238020000000006],[-121.88683,37.23799],[-121.88706,37.23796],[-121.88728,37.23787],[-121.88742,37.237790000000004],[-121.88767000000001,37.237680000000005],[-121.88798000000001,37.237500000000004],[-121.88853,37.23716],[-121.88872,37.237030000000004],[-121.88883000000001,37.236920000000005],[-121.88916,37.23644],[-121.88947,37.23612],[-121.88985000000001,37.235800000000005],[-121.89027000000002,37.235510000000005],[-121.89090000000002,37.23514],[-121.89240000000001,37.23429],[-121.89256,37.23422],[-121.89314000000002,37.23406000000001],[-121.89356000000001,37.23384],[-121.89387,37.2336],[-121.89406000000001,37.233380000000004],[-121.89421000000002,37.233140000000006],[-121.89446000000001,37.232580000000006],[-121.89468000000001,37.23228],[-121.89487000000001,37.232110000000006],[-121.89514000000001,37.23192],[-121.89585000000001,37.23127],[-121.89665000000001,37.23048],[-121.89683000000001,37.230380000000004],[-121.89699000000002,37.23019],[-121.89724000000001,37.230000000000004],[-121.89731,37.22992],[-121.89774000000001,37.22963],[-121.89798,37.2295],[-121.89834,37.22927],[-121.89914000000002,37.22883],[-121.89933,37.2287],[-121.89981000000002,37.22847],[-121.90008000000002,37.22831],[-121.90089,37.227880000000006],[-121.90127000000001,37.22762],[-121.90153000000001,37.22737],[-121.90205000000002,37.22701],[-121.90251,37.226620000000004],[-121.90276000000001,37.22645],[-121.90302000000001,37.226310000000005],[-121.90318,37.226150000000004],[-121.90328000000001,37.22608],[-121.90334000000001,37.22605],[-121.90342000000001,37.22605],[-121.90355000000001,37.226090000000006],[-121.90360000000001,37.22612],[-121.90386000000001,37.22639],[-121.90398,37.226470000000006],[-121.90412,37.226490000000005],[-121.90428000000001,37.22648],[-121.90459000000001,37.226420000000005],[-121.90472000000001,37.22636],[-121.90512000000001,37.226130000000005],[-121.90562000000001,37.2259],[-121.90626,37.22554],[-121.90638000000001,37.22543],[-121.90642000000001,37.225350000000006],[-121.90644,37.225280000000005],[-121.90638000000001,37.225120000000004],[-121.90633000000001,37.22504],[-121.90603000000002,37.22467],[-121.906,37.2246],[-121.90596000000001,37.224450000000004],[-121.90599000000002,37.224120000000006],[-121.90605000000001,37.22395],[-121.90632000000001,37.223470000000006],[-121.90649,37.22316],[-121.90661000000001,37.22298],[-121.90703,37.22214],[-121.90713000000001,37.22202],[-121.90726000000001,37.221920000000004],[-121.90733000000002,37.22189],[-121.90758000000001,37.221810000000005],[-121.90819,37.22171],[-121.90833,37.221650000000004],[-121.90851,37.22153],[-121.90855,37.22149],[-121.90864,37.221360000000004],[-121.90875000000001,37.22106],[-121.90879000000001,37.220870000000005],[-121.90889000000001,37.22068],[-121.90906000000001,37.22054],[-121.90949,37.22023],[-121.90963,37.22003],[-121.90970000000002,37.21978],[-121.90969000000001,37.21958],[-121.90968000000001,37.219530000000006],[-121.90952000000001,37.21925],[-121.90936,37.218990000000005],[-121.90920000000001,37.21882],[-121.90909,37.218650000000004],[-121.90908,37.218450000000004],[-121.90912000000002,37.21828],[-121.90915000000001,37.21824],[-121.90932000000001,37.2181],[-121.90947000000001,37.21804],[-121.90958,37.217940000000006],[-121.90979000000002,37.21781],[-121.91000000000001,37.21775],[-121.91013000000001,37.217740000000006],[-121.91025,37.2177],[-121.91042000000002,37.217670000000005],[-121.91069000000002,37.21766],[-121.91073000000002,37.217650000000006],[-121.91078000000002,37.21761],[-121.91088,37.21761],[-121.91122000000001,37.217530000000004],[-121.91135000000001,37.21752],[-121.91154000000002,37.21746],[-121.91198000000001,37.217360000000006],[-121.91236,37.21726],[-121.91263000000001,37.21716],[-121.91271,37.21717],[-121.91286000000001,37.21725],[-121.91336000000001,37.217690000000005],[-121.91357,37.21781],[-121.91378000000002,37.21781],[-121.91398000000001,37.21775],[-121.91418000000002,37.21773],[-121.91431000000001,37.217690000000005],[-121.91465000000001,37.217670000000005],[-121.91492000000001,37.217690000000005],[-121.91542000000001,37.21779],[-121.91572000000001,37.21793],[-121.91595000000001,37.2181],[-121.91600000000001,37.21817],[-121.91632000000001,37.21835],[-121.91657000000001,37.218520000000005],[-121.91686000000001,37.218590000000006],[-121.91705,37.21866],[-121.91725000000001,37.218770000000006],[-121.91752000000001,37.21885],[-121.91778000000001,37.21889],[-121.91798000000001,37.218970000000006],[-121.9184,37.219],[-121.91861000000002,37.21904],[-121.91900000000001,37.21905],[-121.91919000000001,37.219080000000005],[-121.91937000000001,37.21905],[-121.91948000000001,37.21905],[-121.91990000000001,37.219100000000005],[-121.9201,37.21916],[-121.92020000000001,37.219150000000006],[-121.92038000000001,37.21918],[-121.92044000000001,37.219150000000006],[-121.92074000000001,37.21918],[-121.92083000000001,37.219150000000006],[-121.92116000000001,37.2192],[-121.92126,37.21918],[-121.92138000000001,37.2192],[-121.92148000000002,37.21923],[-121.92177000000001,37.21931],[-121.92186000000001,37.21934],[-121.92193,37.21934],[-121.92206000000002,37.21938],[-121.92225,37.219460000000005],[-121.92229,37.219460000000005],[-121.92257000000001,37.21954],[-121.92269,37.2196],[-121.92282000000002,37.219640000000005],[-121.92302000000001,37.219770000000004],[-121.92318000000002,37.219800000000006],[-121.92334000000001,37.21988],[-121.92344000000001,37.21988],[-121.92361000000001,37.21996],[-121.92371000000001,37.220020000000005],[-121.92380000000001,37.22005],[-121.92384000000001,37.220040000000004],[-121.92401000000001,37.2201],[-121.92415000000001,37.22021],[-121.92425000000001,37.220290000000006],[-121.92435,37.22032],[-121.92444,37.22037],[-121.92457000000002,37.22041],[-121.92463000000001,37.220420000000004],[-121.92477000000001,37.22037],[-121.92487000000001,37.22037],[-121.92495000000001,37.22037],[-121.92502,37.22041],[-121.92506000000002,37.22041],[-121.92509000000001,37.220380000000006],[-121.92523000000001,37.220310000000005],[-121.92536000000001,37.22034],[-121.92554000000001,37.22028],[-121.92565,37.22032],[-121.92567000000001,37.220330000000004],[-121.92569,37.220400000000005],[-121.92565,37.220560000000006],[-121.92552,37.220670000000005],[-121.92541000000001,37.22073],[-121.92538,37.22084],[-121.92529,37.22095],[-121.92524000000002,37.221050000000005],[-121.92519000000001,37.2211],[-121.92518000000001,37.22119],[-121.92513000000001,37.22124],[-121.92516,37.221320000000006],[-121.92517000000001,37.22144],[-121.92515000000002,37.221520000000005],[-121.92518000000001,37.221680000000006],[-121.92527000000001,37.22187],[-121.92540000000001,37.222080000000005],[-121.92547,37.222150000000006],[-121.92548000000001,37.22218],[-121.92553000000001,37.222240000000006],[-121.92555000000002,37.22233000000001],[-121.92566000000001,37.22241],[-121.92571000000001,37.222480000000004],[-121.92596,37.222660000000005],[-121.92609000000002,37.222710000000006],[-121.92615,37.222750000000005],[-121.92629000000001,37.22278],[-121.92649000000002,37.22287],[-121.92657000000001,37.22287],[-121.92669000000001,37.222910000000006],[-121.92706000000001,37.22305],[-121.92755000000001,37.223180000000006],[-121.92773000000001,37.22327000000001],[-121.92824000000002,37.223670000000006],[-121.92850000000001,37.223850000000006],[-121.92862000000001,37.223960000000005],[-121.92930000000001,37.22439],[-121.92947000000001,37.22449],[-121.92961000000001,37.22455],[-121.93001000000001,37.22478],[-121.93074000000001,37.225080000000005],[-121.93082000000001,37.22513],[-121.93098,37.2252],[-121.93119000000002,37.225260000000006],[-121.93145000000001,37.22529],[-121.93212000000001,37.22533],[-121.93241,37.22532],[-121.93255,37.225300000000004],[-121.93279000000001,37.2252],[-121.93307000000001,37.225],[-121.93325000000002,37.22485],[-121.93335,37.224790000000006],[-121.93359000000001,37.224720000000005],[-121.93374000000001,37.22471],[-121.93389,37.224720000000005],[-121.93462000000001,37.22493],[-121.93532,37.2252],[-121.93545,37.22523],[-121.93591,37.22527],[-121.93651000000001,37.225410000000004],[-121.93698,37.225570000000005],[-121.93804000000002,37.22605],[-121.93848000000001,37.22619],[-121.9389,37.226290000000006],[-121.93905000000001,37.226330000000004],[-121.93985,37.22665000000001],[-121.94034,37.226820000000004],[-121.94088,37.22697],[-121.94135000000001,37.227140000000006],[-121.94223000000001,37.22739],[-121.94282000000001,37.227590000000006],[-121.9432,37.22764],[-121.94349000000001,37.22764],[-121.94404000000002,37.22764],[-121.94460000000001,37.22762],[-121.94484000000001,37.22755],[-121.94514000000001,37.227500000000006],[-121.94590000000001,37.22744],[-121.94648000000001,37.227340000000005],[-121.94663000000001,37.22733],[-121.94678,37.227340000000005],[-121.94693000000001,37.22739],[-121.94706000000001,37.22746],[-121.94767000000002,37.22789],[-121.94798000000002,37.22807],[-121.94823000000001,37.228190000000005],[-121.94862,37.22831],[-121.94890000000001,37.22833],[-121.94918000000001,37.2284],[-121.94931000000001,37.228460000000005],[-121.94954000000001,37.2286],[-121.94962000000001,37.228680000000004],[-121.94990000000001,37.229240000000004],[-121.94998000000001,37.229440000000004],[-121.95012000000001,37.229960000000005],[-121.95018,37.230270000000004],[-121.95021000000001,37.23035],[-121.95028,37.23048],[-121.95046,37.23064],[-121.95069000000001,37.230720000000005],[-121.95091000000001,37.230760000000004],[-121.95276000000001,37.231030000000004],[-121.95574,37.23154],[-121.95737000000001,37.23178],[-121.95775,37.23185],[-121.95814000000001,37.2319],[-121.95895000000002,37.23205],[-121.96035,37.23227],[-121.96066,37.232330000000005],[-121.96207000000001,37.232530000000004],[-121.96273000000001,37.23264],[-121.96307000000002,37.23266],[-121.96365000000002,37.232760000000006],[-121.96389,37.23277],[-121.96437000000002,37.2329],[-121.96452000000001,37.23288],[-121.96458000000001,37.232820000000004],[-121.96474,37.232400000000005],[-121.96489000000001,37.23209000000001],[-121.96496,37.23189],[-121.96505,37.231700000000004],[-121.96524000000001,37.231190000000005],[-121.96544000000002,37.2308],[-121.96564000000001,37.230320000000006],[-121.96585,37.22992],[-121.96617,37.229510000000005],[-121.96672000000001,37.22889],[-121.96707,37.22845],[-121.96719000000002,37.22827],[-121.96766000000001,37.22768000000001],[-121.96822000000002,37.227030000000006],[-121.96856000000001,37.22659],[-121.96883000000001,37.22627],[-121.96892000000001,37.22618000000001],[-121.96905000000001,37.22599],[-121.96932000000001,37.22565],[-121.96950000000001,37.225440000000006],[-121.96960000000001,37.225350000000006],[-121.96974000000002,37.22531],[-121.96990000000001,37.22533],[-121.96998,37.225350000000006],[-121.97059000000002,37.2256],[-121.97127,37.22579],[-121.97264000000001,37.226020000000005],[-121.97327000000001,37.2261],[-121.97356,37.22617],[-121.97448000000001,37.226420000000005],[-121.97494,37.226600000000005],[-121.97568000000001,37.22686],[-121.97706000000001,37.227250000000005],[-121.97727,37.227320000000006],[-121.97753000000002,37.22746],[-121.97803,37.227610000000006],[-121.97868000000001,37.22784],[-121.97914000000002,37.228060000000006],[-121.97984000000001,37.228500000000004],[-121.98055000000001,37.22889],[-121.98089000000002,37.22912],[-121.98110000000001,37.22923],[-121.9817,37.22963],[-121.98186000000001,37.229760000000006],[-121.98212000000001,37.22988],[-121.98259000000002,37.230180000000004],[-121.98270000000001,37.23024],[-121.98383000000001,37.23091],[-121.98425,37.23115],[-121.98466,37.23142],[-121.98488,37.23152],[-121.98498000000001,37.23161],[-121.98568000000002,37.232040000000005],[-121.98588000000001,37.23214],[-121.98661000000001,37.23259],[-121.98749000000001,37.233090000000004],[-121.98791000000001,37.23337],[-121.98822000000001,37.23353],[-121.98882,37.233900000000006],[-121.98891,37.23397000000001],[-121.98919000000001,37.234120000000004],[-121.99006000000001,37.23465],[-121.99031000000001,37.23483],[-121.99074000000002,37.23518],[-121.99103000000001,37.235440000000004],[-121.99165,37.23595],[-121.99215000000001,37.236320000000006],[-121.99283000000001,37.23689],[-121.99302000000002,37.237030000000004],[-121.99324000000001,37.23722],[-121.99343,37.237350000000006],[-121.99432000000002,37.2381],[-121.99480000000001,37.238440000000004],[-121.99529000000001,37.2389],[-121.99571000000002,37.239230000000006],[-121.99651000000001,37.239830000000005],[-121.99738,37.24034],[-121.99805,37.24063],[-121.99874000000001,37.240860000000005],[-121.99951000000001,37.241080000000004],[-121.99985000000001,37.24116],[-122.00074000000001,37.24132],[-122.00123,37.241440000000004],[-122.00205000000001,37.241580000000006],[-122.00276000000001,37.24174],[-122.00293,37.24179],[-122.00311,37.241820000000004],[-122.00337,37.241890000000005],[-122.00348000000001,37.2419],[-122.00367000000001,37.24193],[-122.00375000000001,37.24193],[-122.0048,37.24217],[-122.00514000000001,37.24222],[-122.00557,37.24235],[-122.00598000000001,37.24244],[-122.00673,37.242700000000006],[-122.00684000000001,37.242760000000004],[-122.00708000000002,37.24284],[-122.00744000000002,37.243],[-122.00756000000001,37.243080000000006],[-122.0079,37.24322],[-122.00801000000001,37.243300000000005],[-122.00821,37.2434],[-122.00846000000001,37.243500000000004],[-122.00877000000001,37.243660000000006],[-122.00894000000001,37.243730000000006],[-122.00941000000002,37.243970000000004],[-122.00956000000001,37.244020000000006],[-122.00996,37.24421],[-122.01043000000001,37.24445],[-122.01112,37.24476000000001],[-122.01138000000002,37.2449],[-122.0117,37.24503],[-122.01193,37.24515],[-122.01250000000002,37.245360000000005],[-122.01376,37.246],[-122.01426000000001,37.24631],[-122.01539000000001,37.246950000000005],[-122.01610000000001,37.247400000000006],[-122.01911000000001,37.2496],[-122.01971,37.25012],[-122.02052,37.250750000000004],[-122.02079,37.25099],[-122.02142,37.251450000000006],[-122.02208000000002,37.25198],[-122.02242000000001,37.252230000000004],[-122.02294,37.25256],[-122.02375,37.25302000000001],[-122.02459,37.25347],[-122.02530000000002,37.25388],[-122.02592000000001,37.254200000000004],[-122.02668000000001,37.25462],[-122.0271,37.254870000000004],[-122.02775000000001,37.255320000000005],[-122.02795,37.25549],[-122.02852000000001,37.25592],[-122.02905000000001,37.25636],[-122.02949000000001,37.256690000000006],[-122.02992,37.257090000000005],[-122.03024,37.2573],[-122.03036000000002,37.25742],[-122.03079000000001,37.25782],[-122.03131,37.25826],[-122.03156000000001,37.258500000000005],[-122.03163,37.25858],[-122.03172,37.258770000000005],[-122.03187000000001,37.259170000000005],[-122.03190000000001,37.25927],[-122.03193000000002,37.25947],[-122.03192000000001,37.26015],[-122.03186000000001,37.26086],[-122.03187000000001,37.261070000000004],[-122.03183000000001,37.26136],[-122.03185,37.261950000000006],[-122.03185,37.26227],[-122.03183000000001,37.26232],[-122.03185,37.26294],[-122.03183000000001,37.263220000000004],[-122.03186000000001,37.26334000000001],[-122.03185,37.26375],[-122.03187000000001,37.26393],[-122.03186000000001,37.264500000000005],[-122.03183000000001,37.26483],[-122.03186000000001,37.265130000000006],[-122.03187000000001,37.266360000000006],[-122.03190000000001,37.266580000000005],[-122.03188000000002,37.26704],[-122.03188000000002,37.26789],[-122.03191000000001,37.26856],[-122.03190000000001,37.268820000000005],[-122.03196000000001,37.269490000000005],[-122.03196000000001,37.26984],[-122.03201000000001,37.27113000000001],[-122.03203,37.273410000000005],[-122.03200000000001,37.27376],[-122.03200000000001,37.273990000000005],[-122.03204000000001,37.274440000000006],[-122.03202000000002,37.27516],[-122.03206000000002,37.275710000000004],[-122.03206000000002,37.27722],[-122.03208000000001,37.27767],[-122.03219000000001,37.27922],[-122.03222000000001,37.27991],[-122.03231000000001,37.281270000000006],[-122.03231000000001,37.28266],[-122.03226000000001,37.284040000000005],[-122.03226000000001,37.28495],[-122.03224000000002,37.28558],[-122.03227000000001,37.286280000000005],[-122.0323,37.286640000000006],[-122.03238,37.28721],[-122.03239,37.287530000000004],[-122.03236000000001,37.288410000000006],[-122.03228000000001,37.28918],[-122.0323,37.289500000000004],[-122.0323,37.2903],[-122.03228000000001,37.29074],[-122.03228000000001,37.29128],[-122.03225,37.29168000000001],[-122.03221,37.29307],[-122.03218000000001,37.29323],[-122.03221,37.293440000000004],[-122.03225,37.29352],[-122.03228000000001,37.293600000000005],[-122.03225,37.29388],[-122.03229,37.293960000000006],[-122.03232000000001,37.29399],[-122.03243,37.29402],[-122.03328,37.293960000000006],[-122.03393000000001,37.293980000000005],[-122.03427,37.29395],[-122.03468000000001,37.293940000000006],[-122.03512,37.2939],[-122.03526000000001,37.293910000000004],[-122.03629000000001,37.29386],[-122.03687000000001,37.293780000000005],[-122.03712000000002,37.293730000000004],[-122.03781000000001,37.29366],[-122.03890000000001,37.29372],[-122.03928,37.293760000000006],[-122.03952000000001,37.29381],[-122.03966000000001,37.29386],[-122.03977,37.29393],[-122.03991,37.294070000000005],[-122.04003000000002,37.294230000000006],[-122.04046000000001,37.29504],[-122.04114000000001,37.29665],[-122.04127000000001,37.29702],[-122.04131000000001,37.29728],[-122.04128000000001,37.29755],[-122.04128000000001,37.29811],[-122.0413,37.298550000000006],[-122.04131000000001,37.2999],[-122.04126000000001,37.301010000000005],[-122.04129,37.301190000000005],[-122.04132000000001,37.30129],[-122.04132000000001,37.30153],[-122.04135000000001,37.30176],[-122.04137000000001,37.302130000000005],[-122.04136000000001,37.30272],[-122.04139,37.30304],[-122.04136000000001,37.303490000000004],[-122.04137000000001,37.30362],[-122.04136000000001,37.30453],[-122.04137000000001,37.304770000000005],[-122.04137000000001,37.305800000000005],[-122.04135000000001,37.30679000000001],[-122.04138,37.30735],[-122.04136000000001,37.308440000000004],[-122.04139,37.308890000000005],[-122.04139,37.30944],[-122.04140000000001,37.30978],[-122.04140000000001,37.310140000000004],[-122.04137000000001,37.31076],[-122.04137000000001,37.31156],[-122.04142000000002,37.31232],[-122.04139,37.312760000000004],[-122.04141000000001,37.313500000000005],[-122.04141000000001,37.31438],[-122.04137000000001,37.314870000000006],[-122.04138,37.315360000000005],[-122.04135000000001,37.315630000000006],[-122.04137000000001,37.3157],[-122.04137000000001,37.315870000000004],[-122.04139,37.31595],[-122.04140000000001,37.31655000000001],[-122.04137000000001,37.31757],[-122.04139,37.31777],[-122.04139,37.318220000000004],[-122.04140000000001,37.3185],[-122.04139,37.319100000000006],[-122.04142000000002,37.31944],[-122.04140000000001,37.31974],[-122.04143,37.32058],[-122.04139,37.32121],[-122.04140000000001,37.32141],[-122.04152,37.3218],[-122.04149000000001,37.32267],[-122.04150000000001,37.32289],[-122.04155000000002,37.322970000000005],[-122.04159000000001,37.323010000000004],[-122.04165,37.32303],[-122.04180000000001,37.32305],[-122.04269000000001,37.323040000000006],[-122.04304,37.32302],[-122.04353,37.32303],[-122.04431000000001,37.323010000000004],[-122.04495000000001,37.32302],[-122.04543000000001,37.322970000000005],[-122.04611000000001,37.32302],[-122.04674000000001,37.323],[-122.04735000000001,37.323010000000004],[-122.04739000000001,37.32303],[-122.04742000000002,37.323080000000004],[-122.04737000000002,37.32395],[-122.04738,37.32405],[-122.04742000000002,37.32414],[-122.04745000000001,37.324180000000005],[-122.04749000000001,37.324200000000005],[-122.04760000000002,37.32423],[-122.04809000000002,37.324250000000006],[-122.04844000000001,37.324290000000005],[-122.04867000000002,37.32435],[-122.04894000000002,37.324450000000006],[-122.04913,37.324580000000005],[-122.04941000000001,37.32482],[-122.04956000000001,37.32504],[-122.05019000000001,37.326570000000004],[-122.05041000000001,37.32721],[-122.05044000000001,37.327400000000004],[-122.05047,37.32772000000001],[-122.05044000000001,37.328300000000006],[-122.05046000000002,37.32874],[-122.05043,37.328970000000005],[-122.05046000000002,37.3294],[-122.05044000000001,37.33086],[-122.05056,37.331340000000004],[-122.05056,37.33156],[-122.05064000000002,37.33194],[-122.05060000000002,37.33222],[-122.05060000000002,37.332390000000004],[-122.05066000000001,37.33261],[-122.05068000000001,37.332820000000005],[-122.05068000000001,37.33341],[-122.0507,37.333690000000004],[-122.05069,37.33397],[-122.05071000000001,37.33424],[-122.05068000000001,37.334450000000004],[-122.05063000000001,37.334590000000006],[-122.05063000000001,37.33476],[-122.05067000000001,37.335040000000006],[-122.05060000000002,37.335510000000006],[-122.05061,37.335640000000005],[-122.05072000000001,37.3359],[-122.05074,37.336110000000005],[-122.05072000000001,37.3363],[-122.05068000000001,37.336490000000005],[-122.05043,37.33713],[-122.05029,37.3374],[-122.05028000000001,37.337500000000006],[-122.05030000000001,37.33753],[-122.05034,37.33755],[-122.05054000000001,37.33756],[-122.05160000000001,37.337590000000006],[-122.05319000000001,37.337590000000006],[-122.05389000000001,37.33757000000001],[-122.05496000000001,37.337590000000006],[-122.05757000000001,37.33758],[-122.05799,37.3376],[-122.05873000000001,37.33755],[-122.05912000000001,37.33757000000001],[-122.05959000000001,37.337540000000004],[-122.06070000000001,37.33758],[-122.06112000000002,37.33758],[-122.06181000000001,37.3376],[-122.06201000000001,37.3376],[-122.06243,37.33755],[-122.06280000000001,37.337540000000004],[-122.06501000000002,37.33755],[-122.06574,37.33757000000001],[-122.06639000000001,37.33756],[-122.06687000000001,37.33757000000001],[-122.06717,37.33764],[-122.06739,37.337740000000004],[-122.06753,37.337830000000004],[-122.06838,37.33847],[-122.06909000000002,37.339040000000004],[-122.06927,37.339200000000005],[-122.06955,37.339400000000005],[-122.07005000000001,37.339800000000004],[-122.07092000000002,37.340450000000004],[-122.0712,37.34067],[-122.07178,37.34107],[-122.07190000000001,37.341190000000005],[-122.07200000000002,37.34132],[-122.07206000000001,37.341570000000004],[-122.0721,37.3416],[-122.07221000000001,37.3416],[-122.07241,37.34152],[-122.07247000000001,37.34152],[-122.07255,37.341530000000006],[-122.07275000000001,37.341640000000005],[-122.07309000000001,37.341860000000004],[-122.07366,37.342290000000006],[-122.07434,37.342850000000006],[-122.07531000000002,37.34358],[-122.07693,37.344840000000005],[-122.07759000000001,37.34534],[-122.07792,37.34559],[-122.07801,37.345690000000005],[-122.07816000000001,37.34579],[-122.07894,37.3464],[-122.07955000000001,37.3468],[-122.08061000000001,37.347550000000005],[-122.08147000000001,37.34823],[-122.08282000000001,37.349180000000004],[-122.08361000000001,37.3498],[-122.08470000000001,37.35056],[-122.08541000000001,37.3511],[-122.08587000000001,37.351420000000005],[-122.08720000000001,37.352520000000005],[-122.08773000000001,37.352900000000005],[-122.08796000000001,37.35305],[-122.08839,37.3534],[-122.08921000000001,37.35403],[-122.08943000000001,37.35421],[-122.08993000000001,37.35457],[-122.09166,37.35593],[-122.09239000000001,37.356480000000005],[-122.09302000000001,37.35698],[-122.09342000000001,37.35727],[-122.09537000000002,37.35878],[-122.09630000000001,37.35954],[-122.09668,37.35983],[-122.09679000000001,37.359950000000005],[-122.09701000000001,37.36009],[-122.09732000000001,37.36036],[-122.09811,37.3609],[-122.09870000000001,37.361380000000004],[-122.09903000000001,37.361610000000006],[-122.10012,37.362460000000006],[-122.10282000000001,37.364520000000006],[-122.10385000000001,37.36533],[-122.10411,37.365550000000006],[-122.10479000000001,37.366060000000004],[-122.10587000000001,37.36692],[-122.10672000000001,37.36753],[-122.10701000000002,37.36778],[-122.10867,37.369060000000005],[-122.10992000000002,37.370050000000006],[-122.11013000000001,37.37019],[-122.11029,37.370340000000006],[-122.11049000000001,37.370490000000004],[-122.11116000000001,37.37107],[-122.11160000000001,37.371370000000006],[-122.11200000000001,37.37162],[-122.11315,37.37248],[-122.11367000000001,37.37283],[-122.11402000000001,37.3731],[-122.11451000000001,37.373540000000006],[-122.11489000000002,37.373850000000004],[-122.11575,37.37463],[-122.11635000000001,37.37523],[-122.11666000000001,37.37557],[-122.11707000000001,37.376050000000006],[-122.11803,37.377280000000006],[-122.11809000000001,37.377390000000005],[-122.11812,37.37751],[-122.11810000000001,37.377570000000006],[-122.11800000000001,37.377680000000005],[-122.11770000000001,37.37785],[-122.11722,37.3781],[-122.11637,37.37848],[-122.11627000000001,37.37852],[-122.11600000000001,37.37866],[-122.11574000000002,37.378780000000006],[-122.11534,37.37905000000001],[-122.11520000000002,37.37917],[-122.11505000000001,37.37935],[-122.1149,37.37961],[-122.1149,37.37957],[-122.11829000000002,37.37726],[-122.11810000000001,37.37704],[-122.11742000000001,37.37613],[-122.11680000000001,37.37539],[-122.11631000000001,37.37485],[-122.11549000000001,37.37407],[-122.11488000000001,37.373540000000006],[-122.1144,37.373160000000006],[-122.11426000000002,37.37301],[-122.11314000000002,37.37219],[-122.11210000000001,37.371390000000005],[-122.1119,37.371280000000006],[-122.11038,37.37008],[-122.10987000000002,37.36972],[-122.10919000000001,37.36918],[-122.10849,37.36867],[-122.10769,37.36807],[-122.10698000000001,37.36748],[-122.10616000000002,37.36686],[-122.10535000000002,37.366220000000006],[-122.10435000000001,37.365460000000006],[-122.10351000000001,37.36484],[-122.10270000000001,37.364180000000005],[-122.10106,37.36294],[-122.10026,37.36229],[-122.09997000000001,37.362100000000005],[-122.09898000000001,37.361340000000006],[-122.09862000000001,37.361090000000004],[-122.09695,37.359770000000005],[-122.09613000000002,37.35918],[-122.09596,37.359030000000004],[-122.09501000000002,37.35831],[-122.09437000000001,37.35779],[-122.09348000000001,37.35714],[-122.09288000000001,37.35667],[-122.09252000000001,37.35642],[-122.09174000000002,37.35577],[-122.09154000000001,37.355630000000005],[-122.09051000000001,37.35483],[-122.08959000000002,37.3541],[-122.08905000000001,37.35369],[-122.08868000000001,37.3534],[-122.08847000000002,37.353260000000006],[-122.08840000000001,37.353210000000004],[-122.08831,37.35309],[-122.08796000000001,37.3528],[-122.08747000000001,37.352450000000005],[-122.08741,37.35237],[-122.08720000000001,37.352250000000005],[-122.08674,37.35193],[-122.08616,37.35145],[-122.08599000000001,37.35128],[-122.08549000000001,37.35096],[-122.08518000000001,37.35071000000001],[-122.08499,37.350590000000004],[-122.08476000000002,37.3504],[-122.08426000000001,37.350060000000006],[-122.08350000000002,37.349500000000006],[-122.08326000000001,37.349270000000004],[-122.0824,37.348670000000006],[-122.08009000000001,37.34696],[-122.07951000000001,37.34651],[-122.07882000000001,37.34602],[-122.07836,37.345650000000006],[-122.07815000000001,37.3455],[-122.07811000000001,37.34545],[-122.07792,37.3453],[-122.07757000000001,37.34497],[-122.07699000000001,37.34458],[-122.07603,37.343880000000006],[-122.07324000000001,37.341710000000006],[-122.07309000000001,37.3416],[-122.07295,37.34152],[-122.07274000000001,37.341330000000006],[-122.07251000000001,37.34116],[-122.07223,37.340920000000004],[-122.07192,37.34071],[-122.07182000000002,37.34062],[-122.07121000000001,37.3402],[-122.07079000000002,37.33982],[-122.07042000000001,37.339560000000006],[-122.07025000000002,37.33941],[-122.06972,37.33903],[-122.06954,37.33888],[-122.06937,37.33869],[-122.06924000000001,37.33852],[-122.06916000000001,37.338440000000006],[-122.06899000000001,37.33823],[-122.06887,37.33803],[-122.06884000000001,37.337920000000004],[-122.06846000000002,37.33804000000001],[-122.06816,37.33805],[-122.06807,37.33802],[-122.06754000000001,37.337650000000004],[-122.06732000000001,37.337540000000004],[-122.06697000000001,37.337450000000004],[-122.06659,37.337410000000006],[-122.06495000000001,37.33744],[-122.06469000000001,37.33742],[-122.06287,37.337410000000006],[-122.0622,37.33746],[-122.06013000000002,37.337410000000006],[-122.0597,37.33742],[-122.05767000000002,37.3374],[-122.05628000000002,37.337430000000005],[-122.05513,37.33742],[-122.05445000000002,37.337430000000005],[-122.05342000000002,37.337430000000005],[-122.05313000000001,37.33744],[-122.05275,37.33742],[-122.05053000000001,37.33744],[-122.05039000000001,37.337410000000006],[-122.05032000000001,37.337360000000004],[-122.05032000000001,37.337270000000004],[-122.05063000000001,37.33661],[-122.0507,37.33644],[-122.05074,37.33628],[-122.05076000000001,37.33606],[-122.05075000000001,37.335820000000005],[-122.05066000000001,37.33554],[-122.05066000000001,37.33532],[-122.05071000000001,37.33513000000001],[-122.05072000000001,37.33503],[-122.05065,37.33467],[-122.05065,37.33456],[-122.05069,37.334450000000004],[-122.05072000000001,37.33424],[-122.05067000000001,37.33321],[-122.05068000000001,37.332800000000006],[-122.05061,37.33245],[-122.05061,37.33231],[-122.05066000000001,37.33191],[-122.05062000000001,37.33166000000001],[-122.05062000000001,37.331450000000004],[-122.05066000000001,37.331],[-122.05064000000002,37.330490000000005],[-122.05068000000001,37.330020000000005],[-122.05066000000001,37.32922000000001],[-122.05068000000001,37.329040000000006],[-122.05068000000001,37.32831],[-122.05066000000001,37.32768],[-122.05067000000001,37.327490000000004],[-122.05062000000001,37.32717],[-122.05051000000002,37.326800000000006],[-122.05031000000001,37.32634],[-122.04983000000001,37.325100000000006],[-122.04972000000001,37.32488],[-122.04958,37.32468],[-122.04933000000001,37.32446],[-122.04910000000001,37.32432],[-122.04873,37.324160000000006],[-122.04841,37.32408],[-122.04808000000001,37.32403],[-122.04777000000001,37.32403],[-122.04715000000002,37.324070000000006],[-122.04695000000001,37.32406],[-122.04678000000001,37.32401],[-122.04660000000001,37.32394],[-122.0464,37.323780000000006],[-122.04624000000001,37.32361],[-122.04616000000001,37.3235],[-122.04613,37.323370000000004],[-122.04615000000001,37.32287],[-122.04606000000001,37.322770000000006],[-122.046,37.322750000000006],[-122.04587000000001,37.322720000000004],[-122.04556000000001,37.32271],[-122.04498000000001,37.32276],[-122.04456,37.322750000000006],[-122.04419000000001,37.32276],[-122.0434,37.32276],[-122.04305000000001,37.32278],[-122.04209000000002,37.32276],[-122.04169000000002,37.322770000000006],[-122.04161,37.322750000000006],[-122.04157000000001,37.322680000000005],[-122.04156,37.322410000000005],[-122.04160000000002,37.32215],[-122.04158000000001,37.321940000000005],[-122.04159000000001,37.32144],[-122.04162000000001,37.32096000000001],[-122.04161,37.320780000000006],[-122.04156,37.320460000000004],[-122.04161,37.32023],[-122.04161,37.319770000000005],[-122.04163000000001,37.31969],[-122.04160000000002,37.319500000000005],[-122.04162000000001,37.318900000000006],[-122.04161,37.318290000000005],[-122.04158000000001,37.31797],[-122.04160000000002,37.3173],[-122.04158000000001,37.316750000000006],[-122.04162000000001,37.3156],[-122.04160000000002,37.315220000000004],[-122.04157000000001,37.31503],[-122.04158000000001,37.31492],[-122.04159000000001,37.314170000000004],[-122.04157000000001,37.313770000000005],[-122.04157000000001,37.31338],[-122.04154000000001,37.31307],[-122.04157000000001,37.312430000000006],[-122.04156,37.31044],[-122.04154000000001,37.31009],[-122.04155000000002,37.309990000000006],[-122.04155000000002,37.309520000000006],[-122.04154000000001,37.30939],[-122.04155000000002,37.308110000000006],[-122.04154000000001,37.30781],[-122.04150000000001,37.30754],[-122.04151000000002,37.30735],[-122.04149000000001,37.30679000000001],[-122.04149000000001,37.30668],[-122.04155000000002,37.306470000000004],[-122.04153000000001,37.306290000000004],[-122.04155000000002,37.30556],[-122.04152,37.30539],[-122.04152,37.30527],[-122.04155000000002,37.3051],[-122.04154000000001,37.30481],[-122.04154000000001,37.303990000000006],[-122.04152,37.30382],[-122.04154000000001,37.303070000000005],[-122.04151000000002,37.30265],[-122.04152,37.30201],[-122.04142000000002,37.300990000000006],[-122.04149000000001,37.30053],[-122.04149000000001,37.30013],[-122.04147,37.299870000000006],[-122.04148,37.299110000000006],[-122.04145000000001,37.298860000000005],[-122.04145000000001,37.298570000000005],[-122.04141000000001,37.29804],[-122.04142000000002,37.297230000000006],[-122.04141000000001,37.29702],[-122.04136000000001,37.296800000000005],[-122.04128000000001,37.29659],[-122.04106000000002,37.29608],[-122.04088000000002,37.29572],[-122.04056000000001,37.29495],[-122.04025000000001,37.29431],[-122.04007000000001,37.29401],[-122.03995,37.293870000000005],[-122.03977,37.293730000000004],[-122.03962000000001,37.29366],[-122.03936000000002,37.29361],[-122.03773000000001,37.29355],[-122.03727,37.293600000000005],[-122.03619,37.29374],[-122.03390000000002,37.293820000000004],[-122.03292,37.29388],[-122.03251000000002,37.293870000000005],[-122.03243,37.29383],[-122.03241000000001,37.293800000000005],[-122.03244000000001,37.29292],[-122.03247,37.292730000000006],[-122.03248,37.29207],[-122.03252,37.291470000000004],[-122.03252,37.28979],[-122.03254000000001,37.289410000000004],[-122.03254000000001,37.28887],[-122.03261,37.288090000000004],[-122.03263000000001,37.28734],[-122.03257,37.28649],[-122.03252,37.286010000000005],[-122.03247,37.28484],[-122.03250000000001,37.28425],[-122.03251000000002,37.28354],[-122.03253000000001,37.28325],[-122.03249000000001,37.28257],[-122.03250000000001,37.28231],[-122.03252,37.282140000000005],[-122.03251000000002,37.28144],[-122.03244000000001,37.2804],[-122.03244000000001,37.27995000000001],[-122.03241000000001,37.27951],[-122.03238,37.279270000000004],[-122.03239,37.27917],[-122.03239,37.27881],[-122.03234,37.27797],[-122.0323,37.276340000000005],[-122.03228000000001,37.276230000000005],[-122.0323,37.275980000000004],[-122.03228000000001,37.27575],[-122.0323,37.27541],[-122.03228000000001,37.27505],[-122.03228000000001,37.274820000000005],[-122.03224000000002,37.274640000000005],[-122.03225,37.274260000000005],[-122.03222000000001,37.27357000000001],[-122.03224000000002,37.27333],[-122.03222000000001,37.273120000000006],[-122.03224000000002,37.272780000000004],[-122.03223000000001,37.27234],[-122.03219000000001,37.27194],[-122.03218000000001,37.27116],[-122.03216,37.27084],[-122.03217000000001,37.270630000000004],[-122.03215000000002,37.270520000000005],[-122.03216,37.27028],[-122.03215000000002,37.26997],[-122.03217000000001,37.269580000000005],[-122.03212,37.26727],[-122.03211,37.267140000000005],[-122.03208000000001,37.26699],[-122.03207,37.266670000000005],[-122.03209000000001,37.26653],[-122.03209000000001,37.264680000000006],[-122.03207,37.26456],[-122.03207,37.26393],[-122.03205000000001,37.2637],[-122.03206000000002,37.263540000000006],[-122.03206000000002,37.26315],[-122.03207,37.262930000000004],[-122.03207,37.262260000000005],[-122.03209000000001,37.26214],[-122.03207,37.26162],[-122.03209000000001,37.261340000000004],[-122.03207,37.26052],[-122.03209000000001,37.26033],[-122.03209000000001,37.25988],[-122.03210000000001,37.25983],[-122.03214000000001,37.259730000000005],[-122.03217000000001,37.2597],[-122.03234,37.25961],[-122.03238,37.25958],[-122.03239,37.25954],[-122.03238,37.25952],[-122.03218000000001,37.259510000000006],[-122.03210000000001,37.25948],[-122.03203,37.25918],[-122.03182000000001,37.25874],[-122.03172,37.25856],[-122.03148000000002,37.258280000000006],[-122.03126,37.258120000000005],[-122.03063000000002,37.257560000000005],[-122.0305,37.25742],[-122.03034000000001,37.257310000000004],[-122.03014,37.257110000000004],[-122.02992,37.256980000000006],[-122.02968000000001,37.256710000000005],[-122.02952,37.25663],[-122.02834000000001,37.25562],[-122.02775000000001,37.25517],[-122.02726000000001,37.25482],[-122.02671000000001,37.2545],[-122.02626000000001,37.254290000000005],[-122.02607,37.254160000000006],[-122.02578000000001,37.25401],[-122.02513,37.253640000000004],[-122.02399000000001,37.253060000000005],[-122.02362000000001,37.252840000000006],[-122.02339,37.25273],[-122.02312,37.25256],[-122.02282000000001,37.2524],[-122.02229000000001,37.25204],[-122.02202000000001,37.2518],[-122.02177,37.25162],[-122.02119,37.251090000000005],[-122.02091000000001,37.250870000000006],[-122.02076000000001,37.25072],[-122.02059000000001,37.250600000000006],[-122.02044000000001,37.250460000000004],[-122.02031000000001,37.250370000000004],[-122.02016,37.25023],[-122.0199,37.250040000000006],[-122.01968000000001,37.24992],[-122.01919000000001,37.249570000000006],[-122.01882,37.249280000000006],[-122.01843000000001,37.249050000000004],[-122.01830000000001,37.24895],[-122.01804000000001,37.24868],[-122.01745000000001,37.24828],[-122.0173,37.24815],[-122.01721,37.248070000000006],[-122.01716,37.24799],[-122.01709000000001,37.24794],[-122.01656000000001,37.24763],[-122.01584000000001,37.2471],[-122.01571000000001,37.24703],[-122.01506,37.24651],[-122.01482000000001,37.24638],[-122.01399,37.245830000000005],[-122.01333000000001,37.24546],[-122.01298000000001,37.245340000000006],[-122.01231000000001,37.24497],[-122.01201,37.24486],[-122.01142000000002,37.24457],[-122.01126000000001,37.244510000000005],[-122.01088000000001,37.24432],[-122.01024000000001,37.244020000000006],[-122.00991,37.24385],[-122.00930000000001,37.24358],[-122.00849000000001,37.24316],[-122.00712000000001,37.24257],[-122.00574,37.242140000000006],[-122.00419000000001,37.241780000000006],[-122.00403000000001,37.24175],[-122.00355,37.2417],[-122.0031,37.24163],[-122.00268000000001,37.241510000000005],[-122.00075000000001,37.24114],[-122.00021000000001,37.241],[-121.99934,37.24083],[-121.99864000000001,37.24062],[-121.99808000000002,37.24042],[-121.99715,37.240010000000005],[-121.99641000000001,37.23955],[-121.99599,37.23924],[-121.99431000000001,37.237820000000006],[-121.99408000000001,37.23767],[-121.99360000000001,37.237210000000005],[-121.99327000000001,37.236940000000004],[-121.99305000000001,37.236810000000006],[-121.99284000000002,37.236610000000006],[-121.99205,37.23592],[-121.99174000000001,37.2357],[-121.99122000000001,37.23523],[-121.99031000000001,37.23451],[-121.98954,37.23406000000001],[-121.98890000000002,37.23378],[-121.98810000000002,37.2333],[-121.98715000000001,37.232800000000005],[-121.98631,37.23227],[-121.98546,37.231790000000004],[-121.98442000000001,37.23114],[-121.98358,37.23064],[-121.98305,37.2303],[-121.98269,37.230000000000004],[-121.98114000000001,37.22899],[-121.98031,37.22851],[-121.97989000000001,37.22829],[-121.97968000000002,37.22816],[-121.97943000000001,37.227970000000006],[-121.97891000000001,37.22771],[-121.97854000000001,37.227590000000006],[-121.97742000000001,37.22729],[-121.97711000000001,37.227180000000004],[-121.97658000000001,37.22704],[-121.97514000000001,37.22659],[-121.97419000000001,37.22627],[-121.97374,37.226150000000004],[-121.97282000000001,37.22592],[-121.97241000000001,37.22585],[-121.97143000000001,37.225750000000005],[-121.97091,37.22574],[-121.97077000000002,37.225660000000005],[-121.97059000000002,37.2256],[-121.97046000000002,37.225570000000005],[-121.97015,37.225440000000006],[-121.96976000000001,37.22524000000001],[-121.96966,37.22522],[-121.96957,37.22524000000001],[-121.96910000000001,37.22579],[-121.96870000000001,37.22634],[-121.96795000000002,37.2272],[-121.96721000000001,37.228120000000004],[-121.9663,37.22917],[-121.96579000000001,37.22981],[-121.96564000000001,37.23002],[-121.96548000000001,37.230320000000006],[-121.96498000000001,37.231410000000004],[-121.96451,37.232350000000004],[-121.96432000000001,37.23279],[-121.96427000000001,37.23283],[-121.96421000000001,37.232980000000005],[-121.96407,37.23322],[-121.96385000000001,37.23368],[-121.96382000000001,37.23378],[-121.96323000000001,37.23500000000001],[-121.96310000000001,37.23532],[-121.96302000000001,37.23543],[-121.96295,37.235490000000006],[-121.96288000000001,37.23552],[-121.96280000000002,37.235530000000004],[-121.96263,37.235530000000004],[-121.96187,37.235400000000006],[-121.96033000000001,37.23519],[-121.95964000000001,37.23507],[-121.95865,37.23496],[-121.95768000000001,37.234820000000006],[-121.95736000000001,37.23478],[-121.95704,37.234770000000005],[-121.95663,37.23478],[-121.95601,37.234770000000005],[-121.95482000000001,37.234820000000006],[-121.95451000000001,37.2348],[-121.95398000000002,37.234820000000006],[-121.95287,37.23483],[-121.95174000000002,37.234790000000004],[-121.95121,37.23481],[-121.95102000000001,37.23483],[-121.95079000000001,37.234880000000004],[-121.94983,37.235200000000006],[-121.94952,37.235290000000006],[-121.94774000000001,37.235870000000006],[-121.94679000000001,37.23619],[-121.94605000000001,37.23637],[-121.94553,37.236450000000005],[-121.94520000000001,37.23648],[-121.94465000000001,37.236470000000004],[-121.94418,37.23642],[-121.94381000000001,37.236360000000005],[-121.94312000000001,37.23617],[-121.94285,37.23613],[-121.94258,37.236110000000004],[-121.94235,37.236110000000004],[-121.94206000000001,37.23608],[-121.94168,37.23608],[-121.94133000000001,37.23608],[-121.94127,37.236090000000004],[-121.94115000000001,37.23608],[-121.94077000000001,37.236090000000004],[-121.94032000000001,37.23613],[-121.94000000000001,37.236110000000004],[-121.93919000000001,37.236140000000006],[-121.93620000000001,37.23612],[-121.93484000000001,37.236160000000005],[-121.93370000000002,37.236140000000006],[-121.93227000000002,37.236140000000006],[-121.93101000000001,37.2361],[-121.92996000000001,37.236140000000006],[-121.92792000000001,37.236140000000006],[-121.92699,37.236090000000004],[-121.92450000000001,37.236110000000004],[-121.92337,37.236140000000006],[-121.92166000000002,37.236140000000006],[-121.92009000000002,37.236160000000005],[-121.91913000000001,37.236140000000006],[-121.91767000000002,37.23619],[-121.91557000000002,37.236160000000005],[-121.91499,37.236180000000004],[-121.9132,37.23619],[-121.91275000000002,37.23621],[-121.91220000000001,37.236250000000005],[-121.91183000000001,37.23624],[-121.91127000000002,37.236270000000005],[-121.91027000000001,37.236290000000004],[-121.90927,37.23626],[-121.90609,37.236320000000006],[-121.90320000000001,37.236340000000006],[-121.90268,37.23637],[-121.90219,37.23644],[-121.90179,37.23651],[-121.90140000000001,37.236610000000006],[-121.90082000000001,37.23682],[-121.89824000000002,37.23801],[-121.89729000000001,37.238400000000006],[-121.89358000000001,37.24011],[-121.89307000000001,37.24036],[-121.89219000000001,37.240750000000006],[-121.89185,37.24091],[-121.89107000000001,37.24134],[-121.89067000000001,37.24159],[-121.89041000000002,37.24181],[-121.89019,37.24203],[-121.88995000000001,37.24232000000001],[-121.88982000000001,37.24251],[-121.88955000000001,37.243030000000005],[-121.88948,37.24309],[-121.88927000000001,37.24351],[-121.88883000000001,37.24427],[-121.88862,37.24468],[-121.88845,37.244930000000004],[-121.88835000000002,37.24504],[-121.88816000000001,37.24521],[-121.88802000000001,37.2453],[-121.88780000000001,37.24541],[-121.88738000000001,37.245560000000005],[-121.88682000000001,37.245810000000006],[-121.88629000000002,37.24613],[-121.88585,37.24644],[-121.88561000000001,37.24658],[-121.88464,37.247110000000006],[-121.88378000000002,37.247600000000006],[-121.88236,37.248360000000005],[-121.88130000000001,37.24882],[-121.87962000000002,37.24973],[-121.87846,37.25014],[-121.8781,37.250220000000006],[-121.87772000000001,37.25034],[-121.87729000000002,37.250490000000006],[-121.87694,37.250550000000004],[-121.87655000000001,37.250600000000006],[-121.87558000000001,37.25067],[-121.87534000000001,37.25066],[-121.87473000000001,37.250710000000005],[-121.87400000000001,37.250690000000006],[-121.87341,37.250620000000005],[-121.87169000000002,37.2505],[-121.86938,37.25029],[-121.86726000000002,37.250280000000004],[-121.86684000000001,37.25029],[-121.86664,37.25027],[-121.86643000000001,37.2503],[-121.86407000000001,37.250260000000004],[-121.86046,37.25025],[-121.85931000000001,37.250240000000005],[-121.85917,37.25023],[-121.85908,37.25018],[-121.85902000000002,37.250080000000004],[-121.85905000000001,37.2492],[-121.85908,37.24893],[-121.85915000000001,37.248670000000004],[-121.85948,37.247780000000006],[-121.85983000000002,37.24674],[-121.86003000000001,37.24624],[-121.86075000000001,37.244260000000004],[-121.86080000000001,37.24396],[-121.86083,37.24344],[-121.86082,37.243300000000005],[-121.86070000000001,37.242810000000006],[-121.86059000000002,37.242490000000004],[-121.86048000000001,37.2423],[-121.86046,37.242230000000006],[-121.86033,37.24206],[-121.86024,37.24188],[-121.86014000000002,37.24174],[-121.85994000000001,37.241490000000006],[-121.85964000000001,37.24121],[-121.85935,37.24098],[-121.85913000000001,37.24085],[-121.85831,37.24045],[-121.85794000000001,37.240320000000004],[-121.85736000000001,37.24015],[-121.85686000000001,37.240030000000004],[-121.85632000000001,37.23993],[-121.85578000000001,37.23978],[-121.85521000000001,37.23968],[-121.85341000000001,37.239250000000006],[-121.85307000000002,37.23919],[-121.85243000000001,37.239050000000006],[-121.85177000000002,37.23888],[-121.85067000000001,37.23865],[-121.85013000000001,37.238490000000006],[-121.84971000000002,37.23839],[-121.84864,37.23814],[-121.84807,37.238040000000005],[-121.84768000000001,37.237930000000006],[-121.84717,37.237840000000006],[-121.84561000000001,37.23745],[-121.84539000000001,37.23744000000001],[-121.84460000000001,37.23727],[-121.84434000000002,37.2372],[-121.84400000000001,37.23709],[-121.84373000000001,37.23702],[-121.84250000000002,37.23682],[-121.84095,37.23666],[-121.8396,37.23666],[-121.83786,37.236700000000006],[-121.83748000000001,37.23668],[-121.83611,37.23671],[-121.83545000000001,37.23669],[-121.83469000000001,37.23669],[-121.83350000000002,37.23673],[-121.83295000000001,37.23673],[-121.83221,37.236760000000004],[-121.83112000000001,37.23677],[-121.83063000000001,37.236760000000004],[-121.83023000000001,37.236790000000006],[-121.82934000000002,37.236790000000006],[-121.82889000000002,37.236830000000005],[-121.82826000000001,37.23691],[-121.82674000000002,37.23725],[-121.82619000000001,37.23733],[-121.82561000000001,37.23738],[-121.82302000000001,37.23742],[-121.82269000000001,37.23745],[-121.82233000000001,37.23744000000001],[-121.82129,37.23749],[-121.82069000000001,37.23747],[-121.81997000000001,37.237410000000004],[-121.81923,37.23729],[-121.81765000000001,37.236940000000004],[-121.81702000000001,37.23686],[-121.81598000000001,37.23677],[-121.81550000000001,37.236790000000006],[-121.81427000000001,37.236790000000006],[-121.81321000000001,37.236830000000005],[-121.81206000000002,37.236810000000006],[-121.81147000000001,37.236830000000005],[-121.81019,37.236810000000006],[-121.80933000000002,37.236810000000006],[-121.80897000000002,37.236830000000005],[-121.80854000000001,37.23682],[-121.80785000000002,37.23684],[-121.80681000000001,37.236830000000005],[-121.80572000000001,37.23684],[-121.80553,37.23686],[-121.80521000000002,37.23693],[-121.8049,37.23697000000001],[-121.80390000000001,37.23697000000001],[-121.80384000000001,37.236990000000006],[-121.80375000000001,37.23709],[-121.80371000000001,37.23736],[-121.80367000000001,37.23754],[-121.80366000000001,37.237660000000005],[-121.8037,37.23899],[-121.80367000000001,37.23935],[-121.80369,37.23964],[-121.80372000000001,37.23986],[-121.80372000000001,37.2406],[-121.80376000000001,37.24098],[-121.80375000000001,37.24118],[-121.80377000000001,37.241290000000006],[-121.80375000000001,37.24195],[-121.80376000000001,37.242560000000005],[-121.80379,37.24293],[-121.80379,37.24365],[-121.80376000000001,37.24447],[-121.80378,37.244710000000005],[-121.80378,37.24569],[-121.80377000000001,37.24575],[-121.80373000000002,37.245810000000006],[-121.80359000000001,37.24588],[-121.80283000000001,37.2458],[-121.80265000000001,37.24577],[-121.80212000000002,37.24578],[-121.80162000000001,37.24575],[-121.80125000000001,37.245760000000004],[-121.8011,37.245760000000004],[-121.8007,37.24578],[-121.79970000000002,37.24578],[-121.79903000000002,37.24584],[-121.79870000000001,37.24582],[-121.79836000000002,37.24573],[-121.79822000000001,37.245670000000004],[-121.79804000000001,37.24555],[-121.79799000000001,37.245470000000005],[-121.79799000000001,37.24541],[-121.79800000000002,37.24537],[-121.79813000000001,37.24522],[-121.79815,37.245180000000005],[-121.79815,37.24513],[-121.79812000000001,37.245090000000005],[-121.79808000000001,37.245070000000005],[-121.79792,37.245020000000004]]}}]}
