{"type":"FeatureCollection","features":[{"type":"Feature","properties":{"name":"south-san-jose-to-coyote-valley-loop-2025","source":"https://www.strava.com/activities/15733214130"},"geometry":{"type":"LineString","coordinates":[[-121.79870000000001,37.24584],[-121.79907000000001,37.245870000000004],[-121.79929000000001,37.245850000000004],[-121.79955000000001,37.24589],[-121.79991000000001,37.24593],[-121.8002,37.24593],[-121.80045000000001,37.24597],[-121.80147000000001,37.24597],[-121.80206000000001,37.245920000000005],[-121.80248000000002,37.245920000000005],[-121.80272000000001,37.24595],[-121.80288000000002,37.24593],[-121.80312,37.24593],[-121.80327000000001,37.24595],[-121.80349000000001,37.246],[-121.80377000000001,37.245990000000006],[-121.80385000000001,37.245900000000006],[-121.80386000000001,37.24598],[-121.80400000000002,37.246010000000005],[-121.80411000000001,37.246],[-121.80419,37.24591],[-121.80422000000002,37.2458],[-121.80423,37.24566],[-121.80415,37.24457],[-121.80416000000001,37.24428],[-121.80412000000001,37.24329],[-121.80413000000001,37.242580000000004],[-121.8041,37.242180000000005],[-121.80412000000001,37.24186],[-121.80403000000001,37.24016],[-121.80402000000001,37.239470000000004],[-121.80404000000001,37.239380000000004],[-121.80404000000001,37.238870000000006],[-121.80403000000001,37.237320000000004],[-121.80405,37.2372],[-121.8041,37.237140000000004],[-121.80418000000002,37.23709],[-121.80426000000001,37.237080000000006],[-121.80445000000002,37.23707],[-121.80486,37.23711],[-121.80527000000001,37.23713],[-121.80696,37.237100000000005],[-121.80751000000001,37.237120000000004],[-121.80897000000002,37.23711],[-121.80971000000001,37.23709],[-121.81047000000001,37.237120000000004],[-121.8114,37.237080000000006],[-121.81204000000001,37.23709],[-121.81266000000001,37.237080000000006],[-121.81387000000001,37.237100000000005],[-121.81472000000001,37.237080000000006],[-121.81633000000001,37.237100000000005],[-121.81661000000001,37.237120000000004],[-121.81693000000001,37.23718],[-121.81726,37.237190000000005],[-121.81803000000001,37.23731],[-121.81946,37.23763],[-121.81984000000001,37.23765],[-121.82068000000001,37.23774],[-121.82122000000001,37.237770000000005],[-121.82214,37.237770000000005],[-121.82261000000001,37.237750000000005],[-121.82297000000001,37.23771],[-121.82366,37.237660000000005],[-121.82412000000001,37.23769],[-121.82478,37.23765],[-121.82543000000001,37.237680000000005],[-121.82591000000001,37.23767],[-121.82667000000001,37.23758],[-121.82745000000001,37.2374],[-121.82886,37.23715],[-121.82973000000001,37.23709],[-121.83055000000002,37.237080000000006],[-121.83208,37.237010000000005],[-121.83268000000001,37.237010000000005],[-121.83288,37.23702],[-121.83375000000001,37.237],[-121.83436,37.237010000000005],[-121.83606,37.23696],[-121.83673000000002,37.23697000000001],[-121.83769000000001,37.23695],[-121.83808,37.23696],[-121.83843000000002,37.236940000000004],[-121.83975000000001,37.23695],[-121.84030000000001,37.23693],[-121.84116000000002,37.23696],[-121.84196000000001,37.23704],[-121.84258000000001,37.237120000000004],[-121.84365000000001,37.23731],[-121.84446000000001,37.237480000000005],[-121.84556,37.23776],[-121.84757,37.23818],[-121.84881000000001,37.2385],[-121.84917000000002,37.23856],[-121.84976,37.238710000000005],[-121.85139000000001,37.239050000000006],[-121.85149000000001,37.239090000000004],[-121.85153000000001,37.23912],[-121.85157000000001,37.239200000000004],[-121.85159000000002,37.239270000000005],[-121.85158000000001,37.23937],[-121.85153000000001,37.23949],[-121.85149000000001,37.23955],[-121.85137000000002,37.239650000000005],[-121.85137000000002,37.239700000000006],[-121.85145000000001,37.239740000000005],[-121.85148000000001,37.23973],[-121.85153000000001,37.239650000000005],[-121.85159000000002,37.23946],[-121.85156,37.239320000000006],[-121.85151,37.239250000000006],[-121.85142,37.23921],[-121.85127000000001,37.239200000000004],[-121.85109000000001,37.23926],[-121.85093,37.23921],[-121.85088,37.23926],[-121.85087000000001,37.23935],[-121.85091000000001,37.23939],[-121.85099000000001,37.23937],[-121.85102,37.239340000000006],[-121.85112000000001,37.23922],[-121.85117000000001,37.23906],[-121.85121000000001,37.23901],[-121.85210000000001,37.239230000000006],[-121.85246000000001,37.239290000000004],[-121.85275000000001,37.23937],[-121.85319000000001,37.23946],[-121.85340000000001,37.23953],[-121.85387000000001,37.239630000000005],[-121.85424,37.23964],[-121.85444000000001,37.23968],[-121.85478,37.23973],[-121.85521000000001,37.23984],[-121.85529000000001,37.239850000000004],[-121.85530000000001,37.239830000000005],[-121.85528000000001,37.239790000000006],[-121.85523,37.239740000000005],[-121.85508000000002,37.239670000000004],[-121.85449000000001,37.23955],[-121.85425000000001,37.23946],[-121.85371,37.23933],[-121.85298000000002,37.23917],[-121.85187,37.23888],[-121.85092000000002,37.238670000000006],[-121.85082000000001,37.23863],[-121.85055000000001,37.238580000000006],[-121.85023000000001,37.238490000000006],[-121.84943000000001,37.238330000000005],[-121.84772000000001,37.23792],[-121.84672,37.23771],[-121.84563000000001,37.23744000000001],[-121.84503000000001,37.23734],[-121.84463000000001,37.23725],[-121.84367,37.237],[-121.84287,37.23684],[-121.84229,37.23677],[-121.84112,37.23666],[-121.84015000000001,37.23662],[-121.83983,37.236630000000005],[-121.8396,37.236610000000006],[-121.83913000000001,37.23666],[-121.83703000000001,37.236700000000006],[-121.83538000000001,37.236740000000005],[-121.83501000000001,37.236760000000004],[-121.83426000000001,37.23677],[-121.83394000000001,37.23675],[-121.83300000000001,37.23675],[-121.83215000000001,37.23677],[-121.83049000000001,37.23678],[-121.83000000000001,37.236760000000004],[-121.82920000000001,37.236790000000006],[-121.8289,37.236810000000006],[-121.82814,37.23691],[-121.82682000000001,37.237230000000004],[-121.82604,37.23734],[-121.82566000000001,37.23736],[-121.8247,37.2374],[-121.82404000000001,37.2374],[-121.82288000000001,37.23744000000001],[-121.82142,37.23747],[-121.82042000000001,37.23745],[-121.81977,37.23738],[-121.81945,37.23733],[-121.81920000000001,37.237260000000006],[-121.81878,37.2372],[-121.81829,37.23707],[-121.81771,37.23695],[-121.81674000000001,37.23682],[-121.81591000000002,37.23678],[-121.81549000000001,37.23677],[-121.81348000000001,37.2368],[-121.81132000000001,37.236810000000006],[-121.80999000000001,37.236830000000005],[-121.80947,37.23682],[-121.80823000000001,37.23684],[-121.80604000000001,37.236830000000005],[-121.80539000000002,37.236850000000004],[-121.80528000000001,37.23687],[-121.80512000000002,37.236920000000005],[-121.805,37.23693],[-121.80415,37.23696],[-121.80400000000002,37.236940000000004],[-121.80400000000002,37.23695],[-121.80392,37.23695],[-121.80386000000001,37.23697000000001],[-121.80378,37.23705],[-121.80374,37.237280000000005],[-121.80365,37.23762],[-121.80366000000001,37.2378],[-121.80371000000001,37.238240000000005],[-121.80372000000001,37.23899],[-121.80377000000001,37.239340000000006],[-121.80374,37.23984],[-121.80376000000001,37.240210000000005],[-121.80375000000001,37.240480000000005],[-121.80379,37.240950000000005],[-121.80376000000001,37.24152],[-121.80378,37.24192],[-121.80381000000001,37.242140000000006],[-121.80378,37.24231],[-121.80378,37.2428],[-121.80376000000001,37.243050000000004],[-121.80381000000001,37.24423],[-121.80378,37.24438],[-121.80380000000001,37.244890000000005],[-121.80381000000001,37.245580000000004],[-121.80379,37.245720000000006],[-121.80375000000001,37.24578],[-121.80368000000001,37.24582],[-121.80354000000001,37.24586],[-121.80331000000001,37.24582],[-121.80301000000001,37.24582],[-121.80282000000001,37.24579],[-121.80211000000001,37.245810000000006],[-121.80180000000001,37.24579],[-121.80075000000001,37.2458],[-121.80031000000001,37.24577],[-121.79967,37.24578],[-121.79886,37.24584],[-121.79860000000001,37.2458],[-121.79842000000001,37.245760000000004],[-121.79820000000001,37.245670000000004],[-121.79801,37.24557],[-121.79797,37.24553],[-121.79793000000001,37.24541],[-121.79794000000001,37.24535],[-121.79796,37.2453],[-121.79804000000001,37.24521],[-121.79805,37.245110000000004],[-121.79804000000001,37.245070000000005],[-121.79796,37.245020000000004],[-121.79784000000001,37.24499],[-121.79772000000001,37.24515],[-121.79784000000001,37.245160000000006],[-121.79787,37.24515],[-121.79786000000001,37.24513],[-121.79800000000002,37.245070000000005],[-121.79788,37.2451],[-121.79797,37.245050000000006],[-121.79800000000002,37.2451],[-121.79815,37.24512],[-121.79819,37.245140000000006],[-121.79820000000001,37.24517],[-121.79811000000001,37.2453],[-121.79802000000001,37.24539],[-121.79791000000002,37.24542],[-121.79784000000001,37.24541],[-121.79772000000001,37.24532],[-121.79756,37.24517],[-121.79739000000001,37.24497],[-121.79722000000001,37.244690000000006],[-121.79716,37.24456],[-121.79711,37.2443],[-121.79706000000002,37.24418],[-121.79691000000001,37.24405],[-121.79672000000001,37.243930000000006],[-121.79650000000001,37.24382000000001],[-121.79624000000001,37.243770000000005],[-121.79589000000001,37.243770000000005],[-121.79557000000001,37.24381],[-121.79523,37.24378],[-121.79508000000001,37.24374],[-121.79495000000001,37.243660000000006],[-121.79472000000001,37.24345],[-121.79463000000001,37.24334],[-121.79457000000001,37.243210000000005],[-121.79453000000001,37.243],[-121.79455000000002,37.24242],[-121.79460000000002,37.24206],[-121.79462000000001,37.241710000000005],[-121.79461,37.2415],[-121.79454000000001,37.24123],[-121.79448000000001,37.2411],[-121.79434,37.24092],[-121.79422000000001,37.24082000000001],[-121.79390000000001,37.24065],[-121.79354000000001,37.24053],[-121.79291,37.24043],[-121.79092000000001,37.240050000000004],[-121.78918000000002,37.23989],[-121.7891,37.23987],[-121.78902000000001,37.239830000000005],[-121.78898000000001,37.23977],[-121.78898000000001,37.23971],[-121.78911000000001,37.23949],[-121.78944000000001,37.23908],[-121.78964,37.238890000000005],[-121.78968,37.23883],[-121.78970000000001,37.23877],[-121.78968,37.23872],[-121.78964,37.23868],[-121.78943000000001,37.23859],[-121.78847,37.2381],[-121.78812,37.23787],[-121.78750000000001,37.23751],[-121.78695,37.23715],[-121.78618000000002,37.236720000000005],[-121.78578000000002,37.236470000000004],[-121.78544000000001,37.23628],[-121.78462,37.235780000000005],[-121.78449,37.235710000000005],[-121.78438000000001,37.23563],[-121.78434000000001,37.23557],[-121.78432000000001,37.235510000000005],[-121.78432000000001,37.23545],[-121.78435,37.235400000000006],[-121.78490000000001,37.2349],[-121.7853,37.234480000000005],[-121.78581000000001,37.23397000000001],[-121.78602000000001,37.23384],[-121.78652000000001,37.233700000000006],[-121.78665000000001,37.233630000000005],[-121.78704,37.23319],[-121.78722,37.23306],[-121.78739000000002,37.23284],[-121.78756000000001,37.23268],[-121.78768000000001,37.232600000000005],[-121.78834,37.232350000000004],[-121.78848,37.23227],[-121.78866000000001,37.232130000000005],[-121.78892,37.23185],[-121.78916000000001,37.231550000000006],[-121.78958000000002,37.23111],[-121.79008,37.23053],[-121.79049,37.2301],[-121.79062,37.22995],[-121.79071,37.22979],[-121.79078000000001,37.22963],[-121.79091000000001,37.22898],[-121.79098,37.22796],[-121.79105000000001,37.22746],[-121.79108000000001,37.226910000000004],[-121.79110000000001,37.22672],[-121.79111,37.22643],[-121.79107,37.22601],[-121.79113000000001,37.22549],[-121.79114000000001,37.225150000000006],[-121.79109000000001,37.224880000000006],[-121.79102,37.22475],[-121.79092000000001,37.22462],[-121.79054000000001,37.22435],[-121.79009,37.224120000000006],[-121.78924,37.223530000000004],[-121.78905,37.223440000000004],[-121.78891000000002,37.223400000000005],[-121.78834,37.223330000000004],[-121.78805000000001,37.22325],[-121.78786000000001,37.22316],[-121.78699,37.222640000000006],[-121.78602000000001,37.222240000000006],[-121.78588,37.222150000000006],[-121.78548,37.22184],[-121.78510000000001,37.221650000000004],[-121.78475000000002,37.221520000000005],[-121.78386,37.22129],[-121.78324,37.22111],[-121.78294000000001,37.221000000000004],[-121.78277000000001,37.220890000000004],[-121.78267000000001,37.22077],[-121.78267000000001,37.22068],[-121.78294000000001,37.220380000000006],[-121.78296000000002,37.220290000000006],[-121.78296000000002,37.220130000000005],[-121.78285000000001,37.219840000000005],[-121.78240000000001,37.21887],[-121.78228000000001,37.21858],[-121.78227000000001,37.21847],[-121.7823,37.21838],[-121.78237000000001,37.218270000000004],[-121.78244000000001,37.2182],[-121.78262000000001,37.21811],[-121.78273000000002,37.218090000000004],[-121.78284000000001,37.218090000000004],[-121.78299000000001,37.218120000000006],[-121.78319,37.21826],[-121.78326000000001,37.2184],[-121.78329000000001,37.2186],[-121.78343000000001,37.219080000000005],[-121.78356000000001,37.21933000000001],[-121.78366000000001,37.21943],[-121.78382,37.21951],[-121.78392000000001,37.219550000000005],[-121.78459000000001,37.2196],[-121.78471,37.21963],[-121.78484000000002,37.21969],[-121.78495000000001,37.21976],[-121.78502,37.219820000000006],[-121.78506000000002,37.21988],[-121.78517000000001,37.220000000000006],[-121.78540000000001,37.22012],[-121.78567000000001,37.22016],[-121.78590000000001,37.220130000000005],[-121.78599000000001,37.2201],[-121.78636000000002,37.21989000000001],[-121.7866,37.21985],[-121.78684000000001,37.219860000000004],[-121.78727,37.219930000000005],[-121.78741000000001,37.21994],[-121.78774000000001,37.219950000000004],[-121.78794,37.21992],[-121.7882,37.219840000000005],[-121.78847,37.2197],[-121.78875000000001,37.219500000000004],[-121.78929000000001,37.219060000000006],[-121.78942,37.218970000000006],[-121.78962000000001,37.218790000000006],[-121.78984000000001,37.218540000000004],[-121.78997000000001,37.21844],[-121.79010000000001,37.218300000000006],[-121.79019000000001,37.21817],[-121.79029000000001,37.21808],[-121.79037000000001,37.21797],[-121.79047000000001,37.2179],[-121.79087000000001,37.21777],[-121.79139,37.21775],[-121.79155000000002,37.217780000000005],[-121.79169000000002,37.217850000000006],[-121.79195000000001,37.21793],[-121.79224,37.218],[-121.79242,37.21801],[-121.79257000000001,37.218],[-121.79273,37.217960000000005],[-121.79308,37.21779],[-121.79331,37.217530000000004],[-121.79337000000001,37.217380000000006],[-121.79347000000001,37.216820000000006],[-121.79346000000001,37.21672],[-121.79349,37.216570000000004],[-121.79352000000002,37.215880000000006],[-121.79356000000001,37.215650000000004],[-121.79366000000002,37.21548000000001],[-121.79374000000001,37.215360000000004],[-121.79397000000002,37.215160000000004],[-121.79415000000002,37.215050000000005],[-121.79437000000001,37.21497],[-121.79459000000001,37.21493],[-121.79521000000001,37.214870000000005],[-121.79541,37.214870000000005],[-121.79564,37.214830000000006],[-121.79594000000002,37.21481],[-121.79646000000001,37.21466],[-121.79670000000002,37.214560000000006],[-121.79692000000001,37.21443],[-121.79716,37.21432],[-121.79738,37.214270000000006],[-121.79750000000001,37.21426],[-121.79791000000002,37.214310000000005],[-121.79801,37.21434],[-121.79886,37.21481],[-121.79909,37.21491],[-121.79922,37.214940000000006],[-121.79949,37.214940000000006],[-121.79955000000001,37.21493],[-121.79970000000002,37.214870000000005],[-121.79987000000001,37.214760000000005],[-121.80011,37.214580000000005],[-121.80017000000001,37.21454],[-121.80026000000001,37.21446],[-121.80038,37.21439],[-121.80073000000002,37.2143],[-121.80119,37.21423],[-121.80155,37.214110000000005],[-121.80166000000001,37.21405],[-121.80206000000001,37.21379],[-121.80215000000001,37.213710000000006],[-121.80228000000001,37.21356],[-121.80239000000002,37.213350000000005],[-121.80250000000001,37.2132],[-121.80275,37.212970000000006],[-121.80353000000001,37.21264],[-121.80389000000001,37.21246],[-121.8041,37.21233],[-121.80476000000002,37.21182],[-121.80487000000001,37.21177],[-121.80498000000001,37.21179],[-121.80503000000002,37.21182],[-121.80543000000002,37.21215],[-121.80577000000001,37.21246],[-121.8062,37.21276],[-121.80665,37.21302],[-121.80725000000001,37.213300000000004],[-121.80769000000001,37.213460000000005],[-121.80801000000001,37.21356],[-121.80854000000001,37.21367],[-121.80910000000002,37.213750000000005],[-121.80968000000001,37.213800000000006],[-121.81025000000001,37.213800000000006],[-121.81082,37.213750000000005],[-121.81121000000002,37.2137],[-121.81178000000001,37.21356],[-121.81215000000002,37.21343],[-121.81267000000001,37.213240000000006],[-121.81300000000002,37.21314],[-121.81332,37.21309],[-121.81363,37.213080000000005],[-121.81394000000002,37.21311],[-121.81426,37.21318],[-121.81486000000001,37.213390000000004],[-121.81576000000001,37.21374],[-121.81605,37.213820000000005],[-121.81635000000001,37.21383],[-121.81651000000001,37.21381],[-121.81683000000001,37.213730000000005],[-121.81713,37.21359],[-121.81726,37.2135],[-121.81737000000001,37.213390000000004],[-121.81747000000001,37.21327],[-121.81761000000002,37.21302],[-121.81818000000001,37.211780000000005],[-121.81849000000001,37.21117],[-121.81864000000002,37.21092],[-121.81907000000001,37.21032],[-121.81939000000001,37.209770000000006],[-121.81954,37.209540000000004],[-121.81994000000002,37.209070000000004],[-121.82016000000002,37.20884],[-121.82065000000001,37.20839],[-121.82086000000001,37.208180000000006],[-121.82113000000001,37.207860000000004],[-121.82130000000001,37.2077],[-121.82149000000001,37.20759],[-121.82173000000002,37.20752],[-121.82194000000001,37.20749],[-121.82216000000001,37.20749],[-121.82239000000001,37.20754],[-121.82298000000002,37.207800000000006],[-121.82312,37.20788],[-121.82321,37.20788],[-121.82327000000001,37.207860000000004],[-121.82347000000001,37.20769000000001],[-121.82364000000001,37.207420000000006],[-121.82375,37.20727],[-121.82397000000002,37.20705],[-121.82413000000001,37.20691],[-121.82491000000002,37.20644],[-121.82521000000001,37.20628],[-121.82629000000001,37.20562],[-121.82655000000001,37.20546],[-121.82684,37.20521],[-121.82707,37.204930000000004],[-121.82718000000001,37.20474],[-121.82757000000001,37.20367],[-121.82774,37.20315],[-121.82793000000001,37.202630000000006],[-121.82799000000001,37.20252],[-121.82815000000001,37.202290000000005],[-121.82822000000002,37.2021],[-121.82830000000001,37.201950000000004],[-121.82855,37.201710000000006],[-121.82858000000002,37.201600000000006],[-121.82854,37.20149],[-121.82844000000001,37.2014],[-121.82801,37.20116],[-121.82751,37.20091],[-121.82735000000001,37.20078],[-121.82718000000001,37.200660000000006],[-121.82673000000001,37.20042],[-121.82659000000001,37.20035],[-121.82621,37.20013],[-121.82582000000001,37.200030000000005],[-121.82437000000002,37.1998],[-121.82410000000002,37.199740000000006],[-121.82194000000001,37.19914],[-121.81959,37.198550000000004],[-121.81874,37.198240000000006],[-121.81793,37.19798],[-121.81571000000001,37.19744],[-121.81445000000001,37.19711],[-121.8127,37.1967],[-121.81240000000001,37.196600000000004],[-121.80943,37.19545],[-121.80853,37.195060000000005],[-121.80765000000001,37.19471],[-121.80730000000001,37.19453],[-121.80685000000001,37.19436],[-121.80638,37.194210000000005],[-121.80579000000002,37.19399000000001],[-121.80515000000001,37.193760000000005],[-121.80359000000001,37.193110000000004],[-121.8024,37.19254],[-121.80169000000001,37.192260000000005],[-121.80137,37.19209],[-121.80012,37.19154],[-121.79973000000001,37.19135],[-121.79952000000002,37.1912],[-121.79912000000002,37.190870000000004],[-121.79833,37.19015],[-121.79815,37.189980000000006],[-121.79792,37.18972],[-121.79732000000001,37.188750000000006],[-121.79710000000001,37.188430000000004],[-121.79699000000001,37.18822],[-121.79685,37.188030000000005],[-121.79669000000001,37.187830000000005],[-121.79650000000001,37.18766],[-121.79626,37.187470000000005],[-121.79617,37.18742],[-121.79597000000001,37.18735],[-121.79573,37.187340000000006],[-121.79552000000001,37.187360000000005],[-121.79433000000002,37.18769],[-121.79355000000001,37.18788],[-121.79338000000001,37.18791],[-121.78900000000002,37.18791],[-121.78720000000001,37.188],[-121.78444,37.188050000000004],[-121.78259000000001,37.188140000000004],[-121.78077,37.18818],[-121.77977000000001,37.18822],[-121.77934,37.18822],[-121.77907,37.18824],[-121.77795,37.18827],[-121.77614000000001,37.188340000000004],[-121.77537000000001,37.18836],[-121.77488000000001,37.18833],[-121.77427000000002,37.188210000000005],[-121.77402000000001,37.188140000000004],[-121.77376000000001,37.18804],[-121.77344000000001,37.18789],[-121.77322000000001,37.187760000000004],[-121.7729,37.187520000000006],[-121.77218,37.1869],[-121.77166000000001,37.18652],[-121.77135000000001,37.18632],[-121.77104000000001,37.18616],[-121.77055000000001,37.18594],[-121.77003,37.18578],[-121.76965000000001,37.185680000000005],[-121.76768000000001,37.185370000000006],[-121.76677000000001,37.18516],[-121.76633000000001,37.18504],[-121.76587,37.18489],[-121.76496000000002,37.18451],[-121.76410000000001,37.18408],[-121.76376,37.183870000000006],[-121.76314,37.18345],[-121.76244000000001,37.18289],[-121.76180000000001,37.18226000000001],[-121.76112,37.18146],[-121.76093000000002,37.181250000000006],[-121.76065000000001,37.18088],[-121.76037000000001,37.180400000000006],[-121.76022,37.180080000000004],[-121.76006000000001,37.17963],[-121.75997000000001,37.179280000000006],[-121.75987,37.17869],[-121.75973,37.17745],[-121.75951,37.175940000000004],[-121.75935000000001,37.174620000000004],[-121.75927000000001,37.17374],[-121.75919,37.173170000000006],[-121.75907000000001,37.172670000000004],[-121.75890000000001,37.172250000000005],[-121.75867000000001,37.171820000000004],[-121.75853000000001,37.17159],[-121.75808,37.17098],[-121.75766000000002,37.17054],[-121.75683000000001,37.16975],[-121.75652000000001,37.169410000000006],[-121.75638000000001,37.169230000000006],[-121.75618000000001,37.16893],[-121.75585000000001,37.16827],[-121.75575,37.16803],[-121.75565000000002,37.1676],[-121.75564000000001,37.167320000000004],[-121.75567000000001,37.16704],[-121.75568000000001,37.16666],[-121.75573000000001,37.16644],[-121.75573000000001,37.166230000000006],[-121.75576000000001,37.16606],[-121.75576000000001,37.165870000000005],[-121.75582000000001,37.16537],[-121.75585000000001,37.164860000000004],[-121.75581000000001,37.16469],[-121.75564000000001,37.164300000000004],[-121.75548,37.16407],[-121.75529000000002,37.16387],[-121.75516,37.16376],[-121.75500000000001,37.16367],[-121.75466000000002,37.16351],[-121.75444000000002,37.163430000000005],[-121.75402000000001,37.163320000000006],[-121.75347000000001,37.163140000000006],[-121.75295000000001,37.16301],[-121.75261,37.16288],[-121.75237000000001,37.16281],[-121.75221,37.16272],[-121.75200000000001,37.16257],[-121.75188000000001,37.162470000000006],[-121.75173000000001,37.162310000000005],[-121.75157000000002,37.16212],[-121.75143000000001,37.162000000000006],[-121.75128000000001,37.1618],[-121.75110000000001,37.161620000000006],[-121.75097000000001,37.161460000000005],[-121.75039000000001,37.16084],[-121.75031000000001,37.16073],[-121.75006,37.16046],[-121.74969000000002,37.15999],[-121.74950000000001,37.159620000000004],[-121.74944,37.159380000000006],[-121.74942000000001,37.159000000000006],[-121.74942000000001,37.1589],[-121.74954000000001,37.158350000000006],[-121.74956000000002,37.158120000000004],[-121.74943,37.15738],[-121.74940000000001,37.15682],[-121.74941000000001,37.156560000000006],[-121.74948,37.15563],[-121.74949000000001,37.155150000000006],[-121.74948,37.15475],[-121.74937000000001,37.154030000000006],[-121.74932000000001,37.153470000000006],[-121.74924000000001,37.15292],[-121.74913000000001,37.152480000000004],[-121.74905000000001,37.15227],[-121.74889,37.15196],[-121.74870000000001,37.151700000000005],[-121.74837000000001,37.15137],[-121.748,37.15106],[-121.74779000000001,37.15095],[-121.74736000000001,37.150760000000005],[-121.74691000000001,37.15061],[-121.74498000000001,37.15021],[-121.74463000000002,37.15012],[-121.74432000000002,37.15001],[-121.74378000000002,37.149770000000004],[-121.74276,37.14925],[-121.74096000000002,37.148360000000004],[-121.74076000000001,37.14824],[-121.74043,37.147960000000005],[-121.74013000000001,37.147670000000005],[-121.73985,37.147380000000005],[-121.73919000000001,37.146640000000005],[-121.73901000000001,37.1464],[-121.73815,37.145070000000004],[-121.73798000000001,37.1447],[-121.73761,37.14329],[-121.73739,37.142790000000005],[-121.73715000000001,37.14231],[-121.73689000000002,37.141920000000006],[-121.73590000000002,37.14029],[-121.73581000000001,37.140100000000004],[-121.73575000000001,37.139900000000004],[-121.73571000000001,37.13971],[-121.73569,37.13951],[-121.73576000000001,37.13915],[-121.73581000000001,37.138980000000004],[-121.73595000000002,37.1387],[-121.73625000000001,37.138160000000006],[-121.73634000000001,37.13788],[-121.73655000000001,37.137080000000005],[-121.73662000000002,37.13671],[-121.73665000000001,37.136300000000006],[-121.73660000000001,37.13577],[-121.73652000000001,37.135490000000004],[-121.73643000000001,37.135220000000004],[-121.73620000000001,37.134750000000004],[-121.73605,37.13436],[-121.73597000000001,37.13398],[-121.73588000000001,37.133390000000006],[-121.73574,37.13275],[-121.73530000000001,37.13134],[-121.73519,37.13107],[-121.73507000000001,37.130810000000004],[-121.73437000000001,37.12957],[-121.73414000000001,37.129070000000006],[-121.73406000000001,37.128870000000006],[-121.73392000000001,37.128370000000004],[-121.73361000000001,37.127340000000004],[-121.73343000000001,37.12679],[-121.73335000000002,37.126630000000006],[-121.73323,37.1265],[-121.73305,37.12639],[-121.73281000000001,37.12633],[-121.73230000000001,37.126250000000006],[-121.73162,37.12617],[-121.73110000000001,37.12615],[-121.73036,37.12615],[-121.72987,37.12612],[-121.72907000000001,37.12614000000001],[-121.72871,37.126200000000004],[-121.72834,37.12628],[-121.72717000000002,37.12664],[-121.72658000000001,37.1268],[-121.72608000000001,37.12688],[-121.72558000000001,37.126900000000006],[-121.72499,37.126960000000004],[-121.72477,37.127010000000006],[-121.72390000000001,37.12727],[-121.72356,37.12733],[-121.72334000000001,37.12735],[-121.72308000000001,37.127340000000004],[-121.72206000000001,37.127250000000004],[-121.72051,37.127140000000004],[-121.72008000000001,37.12704],[-121.71988,37.12697],[-121.71971,37.12688],[-121.71954000000001,37.12677],[-121.71911000000001,37.126400000000004],[-121.71872,37.126110000000004],[-121.71847000000001,37.125960000000006],[-121.71807000000001,37.12585],[-121.71709000000001,37.125690000000006],[-121.71686000000001,37.12563],[-121.71665000000002,37.12554],[-121.7151,37.12458],[-121.71439000000001,37.12417000000001],[-121.71333000000001,37.123520000000006],[-121.71314000000001,37.123430000000006],[-121.71293000000001,37.123360000000005],[-121.71258000000002,37.12333],[-121.71223,37.12335],[-121.712,37.12341],[-121.71178,37.1235],[-121.71093,37.12395],[-121.71075,37.124010000000006],[-121.71052000000002,37.12407],[-121.71031,37.124100000000006],[-121.71010000000001,37.124100000000006],[-121.70949000000002,37.124050000000004],[-121.70905,37.12402],[-121.70876000000001,37.124050000000004],[-121.70856,37.124100000000006],[-121.70825,37.124230000000004],[-121.70811,37.12433],[-121.70798,37.12445],[-121.7078,37.124660000000006],[-121.70773000000001,37.12476],[-121.70753,37.12525],[-121.7074,37.125510000000006],[-121.70724000000001,37.125690000000006],[-121.70704,37.125840000000004],[-121.70679000000001,37.12597],[-121.70662000000002,37.12603],[-121.70615000000001,37.1261],[-121.70588000000001,37.126090000000005],[-121.70569,37.126050000000006],[-121.70551,37.126000000000005],[-121.7052,37.12586],[-121.70508000000001,37.125780000000006],[-121.70485000000001,37.12558000000001],[-121.70468000000001,37.12534],[-121.70459000000001,37.12511000000001],[-121.70448,37.12453],[-121.70444,37.124390000000005],[-121.70437000000001,37.12424],[-121.70426,37.12411],[-121.70362000000002,37.12346],[-121.70342000000001,37.12315],[-121.70308000000001,37.12232],[-121.70270000000001,37.121230000000004],[-121.70251,37.120810000000006],[-121.70218000000001,37.12023000000001],[-121.70172000000001,37.119550000000004],[-121.70160000000001,37.119400000000006],[-121.70136000000001,37.119200000000006],[-121.70122,37.11912],[-121.70100000000001,37.11903],[-121.70083000000001,37.11898],[-121.70067000000002,37.11896],[-121.70009,37.11894],[-121.69972000000001,37.11894],[-121.69945000000001,37.118900000000004],[-121.69876000000001,37.118750000000006],[-121.69834000000002,37.118680000000005],[-121.69818000000001,37.11867],[-121.69792000000001,37.11869],[-121.69688000000001,37.118790000000004],[-121.69656,37.1188],[-121.69587000000001,37.118700000000004],[-121.69454,37.11845],[-121.69431000000002,37.118390000000005],[-121.69413000000002,37.118320000000004],[-121.69394000000001,37.118210000000005],[-121.69377000000001,37.11807],[-121.69359000000001,37.11784],[-121.69333,37.1173],[-121.69315000000002,37.117020000000004],[-121.69303000000001,37.1169],[-121.69288000000002,37.116800000000005],[-121.69270000000002,37.116690000000006],[-121.69251000000001,37.11661],[-121.6923,37.11656],[-121.69195,37.11654],[-121.69171000000001,37.11657],[-121.69086000000001,37.116760000000006],[-121.69055000000002,37.11679],[-121.69039000000001,37.11677],[-121.69025,37.11674],[-121.68995000000001,37.11663],[-121.68924000000001,37.11623],[-121.68910000000001,37.116150000000005],[-121.68896000000001,37.1161],[-121.68883000000001,37.116080000000004],[-121.68856000000001,37.11607],[-121.68829000000001,37.11609],[-121.68794000000001,37.116150000000005],[-121.68786000000001,37.116150000000005],[-121.68778,37.116130000000005],[-121.68773000000002,37.11609],[-121.68772000000001,37.116040000000005],[-121.68772000000001,37.115970000000004],[-121.68784000000001,37.11572],[-121.68808000000001,37.11531],[-121.68840000000002,37.11464],[-121.68839000000001,37.11457],[-121.68834000000001,37.11451],[-121.68815000000001,37.11442],[-121.68746000000002,37.114230000000006],[-121.68704000000001,37.114070000000005],[-121.68660000000001,37.11386],[-121.68580000000001,37.113440000000004],[-121.68560000000001,37.11337],[-121.68491000000002,37.11316],[-121.68464000000002,37.11305],[-121.68448000000001,37.112950000000005],[-121.68441000000001,37.11289],[-121.68434,37.11274],[-121.68433000000002,37.112660000000005],[-121.68438,37.11238],[-121.68438,37.11229],[-121.68425,37.111850000000004],[-121.68423000000001,37.11166],[-121.68425,37.1114],[-121.68424000000002,37.11122],[-121.68418000000001,37.111050000000006],[-121.68410000000002,37.1109],[-121.68392000000001,37.11072],[-121.68360000000001,37.1105],[-121.68311000000001,37.110240000000005],[-121.68271000000001,37.11000000000001],[-121.68209000000002,37.10952],[-121.68175000000001,37.109300000000005],[-121.68147,37.10915],[-121.68082000000001,37.10886],[-121.68056000000001,37.108720000000005],[-121.6804,37.10858],[-121.68022,37.10835],[-121.68005000000001,37.108200000000004],[-121.67944000000001,37.10772],[-121.67908000000001,37.107470000000006],[-121.67880000000001,37.107350000000004],[-121.67851000000002,37.107260000000004],[-121.67762,37.10707],[-121.67744,37.106970000000004],[-121.67731,37.10685],[-121.67720000000001,37.10671],[-121.67679000000001,37.105920000000005],[-121.67670000000001,37.105810000000005],[-121.67658000000002,37.10569],[-121.67622000000001,37.105430000000005],[-121.67582000000002,37.105160000000005],[-121.67555000000002,37.10502],[-121.67493,37.10474],[-121.67477000000001,37.10464],[-121.67464000000001,37.104510000000005],[-121.67450000000001,37.104290000000006],[-121.67433000000001,37.10381],[-121.67425000000001,37.10367],[-121.67414000000001,37.10354],[-121.67366000000001,37.10309],[-121.67341,37.102810000000005],[-121.67263000000001,37.10177],[-121.67252,37.101560000000006],[-121.67248000000001,37.10141],[-121.67245000000001,37.10123],[-121.67246000000002,37.10092],[-121.67263000000001,37.100170000000006],[-121.67268000000001,37.10002],[-121.67271000000001,37.099740000000004],[-121.6727,37.099610000000006],[-121.67266000000001,37.09949],[-121.67260000000002,37.099380000000004],[-121.67190000000001,37.09825],[-121.67182000000001,37.09805],[-121.6718,37.097910000000006],[-121.67189,37.0974],[-121.67195000000001,37.09718],[-121.67204000000001,37.09696],[-121.67229,37.09651],[-121.67244000000001,37.09615],[-121.67246000000002,37.09601],[-121.67244000000001,37.09593],[-121.67238,37.095690000000005],[-121.67229,37.09545],[-121.67207,37.09521],[-121.67138000000001,37.0946],[-121.67118,37.09445],[-121.67089000000001,37.094280000000005],[-121.67052000000001,37.094100000000005],[-121.67028,37.094010000000004],[-121.66945000000001,37.09385],[-121.66916,37.09376],[-121.66890000000001,37.093650000000004],[-121.66867,37.09349],[-121.66853,37.093360000000004],[-121.66843000000001,37.093230000000005],[-121.66837000000001,37.093140000000005],[-121.66834000000001,37.093050000000005],[-121.66835,37.09297],[-121.66837000000001,37.092890000000004],[-121.66848000000002,37.092760000000006],[-121.66875000000002,37.092560000000006],[-121.66885,37.09246],[-121.66889,37.09237],[-121.66887000000001,37.092310000000005],[-121.66884,37.09225],[-121.66862,37.09205],[-121.66787000000001,37.091460000000005],[-121.6675,37.091150000000006],[-121.66573000000001,37.0897],[-121.66553,37.089510000000004],[-121.66494000000002,37.08903],[-121.66488000000001,37.08896],[-121.66488000000001,37.08892],[-121.66491,37.088890000000006],[-121.66499,37.08885],[-121.66537000000001,37.088840000000005],[-121.66585,37.088840000000005],[-121.66612,37.088820000000005],[-121.66646000000001,37.08874],[-121.66656,37.0887],[-121.66700000000002,37.08865],[-121.66725000000001,37.088570000000004],[-121.66747000000001,37.08854],[-121.66752000000001,37.08852],[-121.66767000000002,37.088390000000004],[-121.66844,37.08785],[-121.66862,37.087740000000004],[-121.66886000000001,37.087540000000004],[-121.66949000000001,37.0871],[-121.66963000000001,37.087030000000006],[-121.66986000000001,37.08688],[-121.67000000000002,37.08675],[-121.67045000000002,37.08644],[-121.6705,37.08639],[-121.67056000000001,37.0863],[-121.67067000000002,37.08623],[-121.67075000000001,37.0861],[-121.67088000000001,37.08596],[-121.67098000000001,37.085730000000005],[-121.67112000000002,37.085530000000006],[-121.67125000000001,37.085280000000004],[-121.67139000000002,37.08509],[-121.67151000000001,37.084810000000004],[-121.67166000000002,37.08462],[-121.67201000000001,37.083650000000006],[-121.67204000000001,37.083600000000004],[-121.67206000000002,37.08339],[-121.67210000000001,37.083200000000005],[-121.67227000000001,37.08288],[-121.67234,37.08267],[-121.67238,37.082480000000004],[-121.67234,37.08229],[-121.67227000000001,37.082080000000005],[-121.67225,37.08198],[-121.67226000000001,37.08175],[-121.67221,37.081630000000004],[-121.67203,37.081410000000005],[-121.67206000000002,37.08113],[-121.67204000000001,37.0808],[-121.67206000000002,37.08072000000001],[-121.67224000000002,37.08041],[-121.67234,37.080180000000006],[-121.67249000000001,37.079530000000005],[-121.67252,37.079350000000005],[-121.67252,37.07914],[-121.67249000000001,37.078920000000004],[-121.67236000000001,37.07849],[-121.67219000000001,37.07762],[-121.67210000000001,37.07706],[-121.67205000000001,37.076480000000004],[-121.67199000000001,37.07609],[-121.67176,37.07531],[-121.67165000000001,37.07508],[-121.67142000000001,37.07475],[-121.67056000000001,37.0739],[-121.67038000000001,37.07361],[-121.67003000000001,37.072950000000006],[-121.66987,37.072700000000005],[-121.66984000000001,37.07262],[-121.66982000000002,37.072430000000004],[-121.66988,37.072030000000005],[-121.66988,37.07193],[-121.66984000000001,37.071740000000005],[-121.66951000000002,37.07115],[-121.66936000000001,37.07094],[-121.66917000000001,37.070780000000006],[-121.66856000000001,37.070330000000006],[-121.66834000000001,37.070150000000005],[-121.66818,37.07005],[-121.66804,37.069990000000004],[-121.66773,37.06992],[-121.66738000000001,37.06982],[-121.66680000000001,37.069700000000005],[-121.66647,37.069590000000005],[-121.66626000000001,37.06954],[-121.66555000000001,37.06933],[-121.66327000000001,37.068740000000005],[-121.66173,37.0683],[-121.66046000000001,37.067980000000006],[-121.66035000000001,37.06795],[-121.66032000000001,37.067930000000004],[-121.6603,37.06785],[-121.66048,37.067440000000005],[-121.66053000000001,37.06723],[-121.66069000000002,37.066900000000004],[-121.66096,37.066190000000006],[-121.66112000000001,37.06584],[-121.66122000000001,37.065560000000005],[-121.66146,37.06495],[-121.66257000000002,37.06228],[-121.66269000000001,37.06185],[-121.6628,37.061150000000005],[-121.66292000000001,37.060340000000004],[-121.66297000000002,37.059720000000006],[-121.66302,37.05959],[-121.66306000000002,37.059520000000006],[-121.66313000000001,37.059470000000005],[-121.66321,37.059450000000005],[-121.6633,37.05946],[-121.66339,37.059490000000004],[-121.66348,37.059540000000005],[-121.66371000000001,37.059760000000004],[-121.66424,37.06022],[-121.66465000000001,37.060610000000004],[-121.66519000000001,37.06119],[-121.66626000000001,37.06224],[-121.66649000000001,37.062400000000004],[-121.66668000000001,37.062450000000005],[-121.66694000000001,37.062430000000006],[-121.66731000000001,37.06232],[-121.66859000000001,37.061840000000004],[-121.67006,37.06132],[-121.67121000000002,37.060950000000005],[-121.6727,37.06042],[-121.67322000000001,37.060190000000006],[-121.67425000000001,37.05951],[-121.67450000000001,37.05939],[-121.67472000000001,37.059360000000005],[-121.67493,37.05937],[-121.67513000000001,37.05939],[-121.67566000000001,37.059490000000004],[-121.67621000000001,37.059630000000006],[-121.67662000000001,37.05969],[-121.67683000000001,37.05969],[-121.67694000000002,37.05962],[-121.67699,37.05962],[-121.67710000000001,37.05964],[-121.67734000000002,37.05964],[-121.67763000000001,37.05970000000001],[-121.67811,37.059850000000004],[-121.67842000000002,37.060010000000005],[-121.67876000000001,37.060210000000005],[-121.67946,37.06054],[-121.68016000000001,37.060770000000005],[-121.68078000000001,37.061020000000006],[-121.68115000000002,37.061130000000006],[-121.68146000000002,37.06118],[-121.68173000000002,37.0613],[-121.68223,37.06143],[-121.68232,37.061440000000005],[-121.68245,37.06143],[-121.68274000000001,37.06152],[-121.68311000000001,37.061580000000006],[-121.68377000000001,37.06176],[-121.68419000000002,37.061890000000005],[-121.68440000000001,37.06192],[-121.6846,37.06199],[-121.68484000000001,37.062090000000005],[-121.68518000000002,37.06232],[-121.6855,37.06251],[-121.68601000000001,37.06273],[-121.68625000000002,37.0628],[-121.68652000000002,37.062850000000005],[-121.68688000000002,37.062850000000005],[-121.68728000000002,37.062810000000006],[-121.68762000000001,37.062720000000006],[-121.68796,37.062670000000004],[-121.68801,37.06264],[-121.6881,37.062630000000006],[-121.68820000000001,37.0626],[-121.68841,37.0626],[-121.68865000000001,37.062580000000004],[-121.68897000000001,37.062630000000006],[-121.68920000000001,37.06268],[-121.68948,37.06279],[-121.68999000000001,37.063030000000005],[-121.69092,37.063550000000006],[-121.69135000000001,37.06374],[-121.69155,37.06385],[-121.69186,37.064],[-121.69279000000002,37.06438],[-121.6937,37.064710000000005],[-121.69459,37.065110000000004],[-121.69587000000001,37.065720000000006],[-121.69636000000001,37.06589],[-121.69705,37.06624],[-121.69735000000001,37.06631],[-121.69770000000001,37.06636],[-121.69794000000002,37.06638],[-121.69829000000001,37.06638],[-121.69902,37.06645],[-121.69929,37.066520000000004],[-121.69951,37.066610000000004],[-121.69964000000002,37.06667],[-121.69983,37.06678],[-121.70027,37.067130000000006],[-121.70092000000001,37.067690000000006],[-121.70124000000001,37.06792],[-121.70207,37.06864],[-121.70238,37.068870000000004],[-121.70258000000001,37.06904],[-121.70279000000001,37.06927],[-121.70296,37.06954],[-121.70303000000001,37.06971],[-121.70306000000001,37.06989],[-121.70307000000001,37.07018],[-121.70306000000001,37.07036],[-121.70291000000002,37.070910000000005],[-121.70286000000002,37.07123],[-121.70273000000002,37.07184],[-121.70269,37.07208],[-121.70263000000001,37.07227],[-121.70256,37.072700000000005],[-121.70257000000001,37.07292],[-121.70262000000001,37.073240000000006],[-121.70269,37.073420000000006],[-121.70283,37.07365],[-121.70298000000001,37.07381],[-121.70321000000001,37.074000000000005],[-121.70355,37.074220000000004],[-121.70429000000001,37.074630000000006],[-121.70485000000001,37.07491],[-121.70558000000001,37.075300000000006],[-121.70599000000001,37.075590000000005],[-121.70634000000001,37.07593],[-121.70651000000001,37.07627],[-121.70655000000001,37.076460000000004],[-121.70663,37.07734],[-121.70673000000001,37.07808],[-121.70689000000002,37.078430000000004],[-121.70711000000001,37.078680000000006],[-121.70735,37.07885],[-121.70754000000001,37.07898],[-121.70796000000001,37.07916],[-121.70819000000002,37.079240000000006],[-121.70864000000002,37.07934],[-121.70913000000002,37.07949],[-121.70958000000002,37.079640000000005],[-121.71000000000001,37.079820000000005],[-121.71035,37.08003],[-121.71050000000001,37.08016000000001],[-121.71060000000001,37.080270000000006],[-121.71071,37.08043],[-121.71095000000001,37.081],[-121.71098,37.081140000000005],[-121.71103000000001,37.08153],[-121.71115,37.08207],[-121.71135000000001,37.082440000000005],[-121.71163000000001,37.08283],[-121.71191,37.083110000000005],[-121.71292000000001,37.084270000000004],[-121.71354000000001,37.084900000000005],[-121.71373000000001,37.085060000000006],[-121.71393,37.085170000000005],[-121.71480000000001,37.085620000000006],[-121.71525000000001,37.08594],[-121.71541,37.08608],[-121.71562000000002,37.08634],[-121.71579000000001,37.08662],[-121.71589000000002,37.08675],[-121.71614000000001,37.087180000000004],[-121.71627000000001,37.087360000000004],[-121.71651000000001,37.087790000000005],[-121.71676000000001,37.088150000000006],[-121.71691000000001,37.08841],[-121.71711,37.0886],[-121.71748000000001,37.088890000000006],[-121.71806000000001,37.089380000000006],[-121.71845,37.089670000000005],[-121.71868,37.089850000000006],[-121.71918000000001,37.090320000000006],[-121.71935,37.090540000000004],[-121.71941000000001,37.090680000000006],[-121.71950000000001,37.091080000000005],[-121.71951000000001,37.091260000000005],[-121.71966,37.09225],[-121.71973000000001,37.09293],[-121.71985000000001,37.093700000000005],[-121.71992000000002,37.093900000000005],[-121.72015,37.09434],[-121.72033,37.09476],[-121.72053000000001,37.09512],[-121.72059000000002,37.095270000000006],[-121.72064,37.09545],[-121.72065,37.095650000000006],[-121.72052000000001,37.096340000000005],[-121.72049000000001,37.09657],[-121.72042,37.096970000000006],[-121.72044000000001,37.09729],[-121.72049000000001,37.09742],[-121.72068000000002,37.09776],[-121.72116000000001,37.09841],[-121.72123,37.09852],[-121.72133000000001,37.09866],[-121.72144000000002,37.09888],[-121.7215,37.099050000000005],[-121.72159,37.099430000000005],[-121.72160000000001,37.099520000000005],[-121.72165000000001,37.099700000000006],[-121.72169000000001,37.09995],[-121.72177,37.100120000000004],[-121.72199,37.100370000000005],[-121.72212,37.10047],[-121.72234000000002,37.10067],[-121.72272000000001,37.10098],[-121.72299000000001,37.10107],[-121.72347,37.101110000000006],[-121.72369,37.10121],[-121.72380000000001,37.10128],[-121.72390000000001,37.10137],[-121.72405,37.101580000000006],[-121.72440000000002,37.102340000000005],[-121.72466000000001,37.10278],[-121.72501000000001,37.10324],[-121.72543,37.10376],[-121.7258,37.10392],[-121.72633,37.10401],[-121.72645000000001,37.10401],[-121.72678,37.10408],[-121.72760000000001,37.104510000000005],[-121.72783000000001,37.10464],[-121.72834,37.10488],[-121.72845000000001,37.104960000000005],[-121.72933,37.10584],[-121.72987,37.106410000000004],[-121.73091000000001,37.10741],[-121.73132000000001,37.107760000000006],[-121.73141000000001,37.107870000000005],[-121.73193,37.10833],[-121.73222000000001,37.108560000000004],[-121.73238,37.108670000000004],[-121.733,37.10902],[-121.73335000000002,37.109190000000005],[-121.73433000000001,37.109750000000005],[-121.73467000000001,37.109970000000004],[-121.73501000000002,37.11025],[-121.73743,37.1124],[-121.73803000000001,37.11291000000001],[-121.73834000000001,37.113200000000006],[-121.73864,37.11357],[-121.73877000000002,37.113760000000006],[-121.73887,37.11395],[-121.739,37.114360000000005],[-121.73911000000001,37.11545],[-121.73917000000002,37.11565],[-121.73924000000001,37.11582000000001],[-121.73948000000001,37.116290000000006],[-121.74020000000002,37.11762],[-121.74043,37.11795],[-121.74080000000001,37.118430000000004],[-121.74103000000001,37.11876],[-121.74113000000001,37.11894],[-121.74122000000001,37.119200000000006],[-121.74126000000001,37.11939],[-121.74128,37.119580000000006],[-121.74127000000001,37.1199],[-121.74122000000001,37.120140000000006],[-121.74115,37.120400000000004],[-121.74101000000002,37.121030000000005],[-121.74095000000001,37.12127],[-121.74085000000001,37.121520000000004],[-121.74074000000002,37.12171],[-121.74054000000001,37.121990000000004],[-121.74034,37.12219],[-121.73979000000001,37.12265],[-121.73954,37.12288],[-121.73870000000001,37.12357],[-121.73814000000002,37.12395],[-121.73757,37.12425],[-121.73729000000002,37.12438],[-121.73683000000001,37.124520000000004],[-121.73615000000001,37.12465],[-121.73557000000001,37.124680000000005],[-121.73496000000002,37.124680000000005],[-121.73467000000001,37.12471],[-121.73436000000001,37.124770000000005],[-121.73407000000002,37.124860000000005],[-121.73393000000002,37.12492],[-121.73368,37.12507],[-121.73348000000001,37.125260000000004],[-121.73334000000001,37.12547],[-121.73327,37.12559],[-121.73319000000001,37.125840000000004],[-121.73318,37.125960000000006],[-121.73319000000001,37.12619],[-121.73323,37.12646],[-121.73378000000001,37.128040000000006],[-121.73410000000001,37.12919],[-121.73416000000002,37.12933],[-121.73486000000001,37.13058],[-121.73492000000002,37.13071],[-121.73508000000001,37.13101],[-121.73536000000001,37.131730000000005],[-121.73544000000001,37.132000000000005],[-121.73568000000002,37.13264],[-121.73577000000002,37.13298],[-121.73579000000001,37.13322],[-121.73593000000001,37.13392],[-121.73595000000002,37.13414],[-121.73602000000001,37.134440000000005],[-121.73610000000001,37.134710000000005],[-121.73625000000001,37.135070000000006],[-121.73639000000001,37.135360000000006],[-121.73654,37.13591],[-121.73658,37.136340000000004],[-121.73655000000001,37.136700000000005],[-121.73625000000001,37.13801],[-121.73615000000001,37.138250000000006],[-121.73575000000001,37.139070000000004],[-121.73569,37.139340000000004],[-121.73566000000001,37.139570000000006],[-121.73567000000001,37.139770000000006],[-121.73578,37.140150000000006],[-121.73588000000001,37.1404],[-121.73613000000002,37.14074],[-121.7365,37.141380000000005],[-121.73709000000001,37.14242],[-121.73724000000001,37.14265],[-121.73741000000001,37.142990000000005],[-121.73753,37.143280000000004],[-121.73768000000001,37.14374],[-121.73793,37.144670000000005],[-121.73800000000001,37.14486],[-121.73811,37.145100000000006],[-121.73841000000002,37.14551],[-121.73908000000002,37.146570000000004],[-121.73952000000001,37.147090000000006],[-121.74019000000001,37.147830000000006],[-121.74043,37.148050000000005],[-121.74071,37.148300000000006],[-121.74094000000001,37.14846],[-121.74164,37.14882],[-121.74186000000002,37.14896],[-121.74236,37.1492],[-121.74256000000001,37.14927],[-121.74367000000001,37.14987],[-121.74429,37.150150000000004],[-121.74490000000002,37.15034],[-121.74558,37.15048],[-121.74582000000001,37.15054000000001],[-121.74644,37.150650000000006],[-121.74698000000001,37.150780000000005],[-121.74727000000001,37.15088],[-121.74762000000001,37.15104],[-121.748,37.151250000000005],[-121.74839000000001,37.151590000000006],[-121.74867,37.15189],[-121.74873000000001,37.15202],[-121.74892000000001,37.152300000000004],[-121.74911000000002,37.15276],[-121.74915000000001,37.15287],[-121.74916,37.153000000000006],[-121.74921,37.153130000000004],[-121.74926,37.15357],[-121.74926,37.153780000000005],[-121.74938000000002,37.15457],[-121.74941000000001,37.15554],[-121.74939,37.155620000000006],[-121.74939,37.155950000000004],[-121.74936000000001,37.15625],[-121.74937000000001,37.156330000000004],[-121.74937000000001,37.156710000000004],[-121.74934,37.15682],[-121.74932000000001,37.157000000000004],[-121.74935,37.15726],[-121.74934,37.157360000000004],[-121.74944,37.1578],[-121.74949000000001,37.15829],[-121.74946000000001,37.15858],[-121.74940000000001,37.158750000000005],[-121.74941000000001,37.158840000000005],[-121.74936000000001,37.15917],[-121.74937000000001,37.15921],[-121.74936000000001,37.159290000000006],[-121.74939,37.15934],[-121.74938000000002,37.15937],[-121.74941000000001,37.15941],[-121.74941000000001,37.15945],[-121.74947000000002,37.159710000000004],[-121.74959000000001,37.15997],[-121.74972000000001,37.16017],[-121.75025000000001,37.160790000000006],[-121.75040000000001,37.16095],[-121.75050000000002,37.16109],[-121.75080000000001,37.161480000000005],[-121.75172,37.162490000000005],[-121.75201000000001,37.16273],[-121.75236000000001,37.16295],[-121.75262000000001,37.16306],[-121.75337,37.16328],[-121.75447000000001,37.16355],[-121.75475000000002,37.163650000000004],[-121.75501000000001,37.163790000000006],[-121.75528000000001,37.16398],[-121.75537000000001,37.164060000000006],[-121.75555000000001,37.164260000000006],[-121.75564000000001,37.16438],[-121.75575,37.16461],[-121.75580000000001,37.16485],[-121.75582000000001,37.16507],[-121.75580000000001,37.165440000000004],[-121.75565000000002,37.166540000000005],[-121.75556000000002,37.167750000000005],[-121.75557,37.16787],[-121.75563000000001,37.168110000000006],[-121.75572000000001,37.16834],[-121.75584,37.16857],[-121.75618000000001,37.16911],[-121.75648000000001,37.16951],[-121.75665000000001,37.169700000000006],[-121.7579,37.17094],[-121.75845000000001,37.17161],[-121.75859000000001,37.17183],[-121.75869000000002,37.17202],[-121.75885000000001,37.172360000000005],[-121.75894000000001,37.17259],[-121.75900000000001,37.172700000000006],[-121.75904000000001,37.172740000000005],[-121.75923000000002,37.17282],[-121.75933,37.172900000000006],[-121.75978,37.173550000000006],[-121.76009,37.1739],[-121.76077000000001,37.1745],[-121.76097000000001,37.17466],[-121.76114000000001,37.17483],[-121.76118000000001,37.17492],[-121.76115000000001,37.17504],[-121.76117,37.17508],[-121.76134,37.17533],[-121.76137000000001,37.17541000000001],[-121.76136000000001,37.175520000000006],[-121.76131000000001,37.1756],[-121.76126000000001,37.175610000000006],[-121.7613,37.175540000000005],[-121.76151000000002,37.17533],[-121.76155000000001,37.175250000000005],[-121.76154000000001,37.17515],[-121.76149000000001,37.175070000000005],[-121.76028000000001,37.17403],[-121.75995,37.17371],[-121.75966000000001,37.173350000000006],[-121.75944000000001,37.17298],[-121.75931000000001,37.17282],[-121.75919,37.172740000000005],[-121.75908000000001,37.17273],[-121.75903000000001,37.17275],[-121.75900000000001,37.17284],[-121.75900000000001,37.17289],[-121.75913000000001,37.17353],[-121.75914000000002,37.173730000000006],[-121.75924,37.17409],[-121.75937,37.175200000000004],[-121.75939000000001,37.17548],[-121.75958000000001,37.17709],[-121.75966000000001,37.177600000000005],[-121.75983000000001,37.179010000000005],[-121.75990000000002,37.17942],[-121.76011000000001,37.18005],[-121.76028000000001,37.180440000000004],[-121.76043000000001,37.180730000000004],[-121.76057000000002,37.18095],[-121.76078000000001,37.18124],[-121.76101000000001,37.181520000000006],[-121.76159000000001,37.18216],[-121.76162000000001,37.182210000000005],[-121.76163000000001,37.18225],[-121.76162000000001,37.182300000000005],[-121.76159000000001,37.18234],[-121.76154000000001,37.182370000000006],[-121.76106000000001,37.182480000000005],[-121.7608,37.18256],[-121.76056000000001,37.182660000000006],[-121.76034000000001,37.182790000000004],[-121.76018,37.18296],[-121.75995,37.1833],[-121.75980000000001,37.183580000000006],[-121.75979000000001,37.18375],[-121.75982,37.184110000000004],[-121.75985000000001,37.184270000000005],[-121.75983000000001,37.18437],[-121.75979000000001,37.18451],[-121.75971000000001,37.18462],[-121.75963000000002,37.18470000000001],[-121.75954000000002,37.18475],[-121.75932000000002,37.184830000000005],[-121.75884,37.18493],[-121.75838000000002,37.184940000000005],[-121.75817,37.184920000000005],[-121.75678,37.18446],[-121.75576000000001,37.18408],[-121.75566,37.18406],[-121.75546000000001,37.184070000000006],[-121.75525,37.184140000000006],[-121.75519000000001,37.18419],[-121.75514000000001,37.18428],[-121.75511000000002,37.18437],[-121.75512,37.184470000000005],[-121.75516,37.184560000000005],[-121.75522000000001,37.184650000000005],[-121.75531000000001,37.18471],[-121.75543,37.18475],[-121.75556000000002,37.18477],[-121.75600000000001,37.18479],[-121.75616000000001,37.184810000000006],[-121.75631000000001,37.184850000000004],[-121.75643000000001,37.184920000000005],[-121.75652000000001,37.184990000000006],[-121.7566,37.18509],[-121.75679000000001,37.185410000000005],[-121.75697000000001,37.1856],[-121.75746000000001,37.18592],[-121.75772,37.18612],[-121.75781,37.18621],[-121.75791000000001,37.186330000000005],[-121.75813000000001,37.18666],[-121.75821,37.186840000000004],[-121.75822000000001,37.186930000000004],[-121.75819000000001,37.18701],[-121.75813000000001,37.18708],[-121.7579,37.18717],[-121.75720000000001,37.1873],[-121.75689000000001,37.187340000000006],[-121.75625000000001,37.18739],[-121.75609000000001,37.18741],[-121.75579,37.1875],[-121.75554000000001,37.18764],[-121.75202000000002,37.19006],[-121.75124000000001,37.19062],[-121.75099000000002,37.190810000000006],[-121.74982000000001,37.19163],[-121.74920000000002,37.192060000000005],[-121.74885,37.192280000000004],[-121.74778,37.19306],[-121.74731000000001,37.193470000000005],[-121.74676000000001,37.193830000000005],[-121.74282000000001,37.196650000000005],[-121.74056000000002,37.198220000000006],[-121.73982000000001,37.198710000000005],[-121.73917000000002,37.199180000000005],[-121.73866000000001,37.19952],[-121.73826000000001,37.19975],[-121.73800000000001,37.199920000000006],[-121.73773000000001,37.200160000000004],[-121.73697000000001,37.200700000000005],[-121.73679000000001,37.200810000000004],[-121.73653000000002,37.201],[-121.7365,37.201060000000005],[-121.73649,37.20112],[-121.73648000000001,37.201220000000006],[-121.7365,37.2013],[-121.73665000000001,37.201550000000005],[-121.73672,37.201640000000005],[-121.73739,37.20228],[-121.73780000000001,37.20262],[-121.73855,37.20333],[-121.73978000000001,37.20452],[-121.74036000000001,37.205020000000005],[-121.74064000000001,37.205310000000004],[-121.74096000000002,37.20559],[-121.74114000000002,37.20579],[-121.74202000000001,37.20655],[-121.74310000000001,37.20754],[-121.74353,37.207930000000005],[-121.74368000000001,37.20805],[-121.74427000000001,37.20859],[-121.74532,37.209500000000006],[-121.74572,37.209880000000005],[-121.74640000000001,37.21045],[-121.74694000000001,37.210860000000004],[-121.74891000000001,37.212210000000006],[-121.74927000000001,37.21249],[-121.75119000000001,37.21387],[-121.75205000000001,37.21445000000001],[-121.75285000000001,37.21493],[-121.75381000000002,37.21544],[-121.75415000000001,37.215650000000004],[-121.7549,37.21604],[-121.75699000000002,37.21705],[-121.75881000000001,37.21788],[-121.76003000000001,37.21848],[-121.76056000000001,37.218720000000005],[-121.76089,37.21889],[-121.76118000000001,37.21909],[-121.7617,37.219570000000004],[-121.76182000000001,37.2197],[-121.76207000000001,37.22003],[-121.76226000000001,37.22039],[-121.76243000000001,37.22091],[-121.76267000000001,37.221470000000004],[-121.76287,37.22177000000001],[-121.76338000000001,37.222440000000006],[-121.76369000000001,37.222750000000005],[-121.76392000000001,37.222930000000005],[-121.76432000000001,37.223200000000006],[-121.76481000000001,37.22348],[-121.76501,37.223580000000005],[-121.76562000000001,37.22381],[-121.76658,37.224090000000004],[-121.76739,37.22424],[-121.76777000000001,37.22433],[-121.76800000000001,37.224360000000004],[-121.76827000000002,37.22442],[-121.76988000000001,37.22469],[-121.77143000000001,37.224990000000005],[-121.77267,37.2252],[-121.7733,37.225350000000006],[-121.77409000000002,37.225620000000006],[-121.77497000000001,37.22599],[-121.77536,37.22621],[-121.77573000000001,37.226380000000006],[-121.77647,37.22681],[-121.77655000000001,37.2269],[-121.77657,37.22695],[-121.77657,37.227000000000004],[-121.77651000000002,37.22711],[-121.77482,37.228950000000005],[-121.77467000000001,37.22917],[-121.77457000000001,37.22941],[-121.77428,37.22972],[-121.77427000000002,37.229780000000005],[-121.77432,37.229890000000005],[-121.77438000000001,37.22997],[-121.77445000000002,37.230030000000006],[-121.77461000000001,37.230140000000006],[-121.77474000000001,37.2302],[-121.77554,37.230500000000006],[-121.77644000000001,37.230970000000006],[-121.77716000000001,37.231440000000006],[-121.77794000000002,37.23189],[-121.77818,37.232060000000004],[-121.77893000000002,37.232510000000005],[-121.77958000000001,37.232870000000005],[-121.77977000000001,37.23303000000001],[-121.78006,37.23315],[-121.78038000000001,37.233320000000006],[-121.78135,37.23393],[-121.78369,37.235310000000005],[-121.78408,37.23557],[-121.78415000000001,37.23565],[-121.78578000000002,37.23659],[-121.78761000000002,37.23769],[-121.78804000000001,37.237930000000006],[-121.78901,37.238530000000004],[-121.7895,37.23879],[-121.78960000000001,37.2389],[-121.78961000000001,37.23895],[-121.78959,37.23901],[-121.78939000000001,37.23921],[-121.78915,37.23939],[-121.78908000000001,37.23951],[-121.78901,37.239720000000005],[-121.78902000000001,37.23984],[-121.78906,37.239900000000006],[-121.78911000000001,37.239940000000004],[-121.78947000000001,37.240010000000005],[-121.79033000000001,37.24007],[-121.79054000000001,37.24013],[-121.79086000000001,37.24015],[-121.79167000000001,37.24029],[-121.79223,37.24042],[-121.79370000000002,37.24071],[-121.79390000000001,37.2408],[-121.79403,37.24087],[-121.79423000000001,37.241060000000004],[-121.79433000000002,37.241220000000006],[-121.79440000000001,37.24139],[-121.79443,37.241510000000005],[-121.79445000000001,37.241760000000006],[-121.79446000000002,37.242470000000004],[-121.79450000000001,37.243100000000005],[-121.79457000000001,37.24335],[-121.79469000000002,37.24353],[-121.79481000000001,37.24363],[-121.79500000000002,37.243750000000006],[-121.79513000000001,37.24381],[-121.79529000000001,37.24385],[-121.79563000000002,37.243880000000004],[-121.79603000000002,37.24385],[-121.79629000000001,37.24385],[-121.79646000000001,37.243880000000004],[-121.79662,37.243950000000005],[-121.79684,37.24409],[-121.79698,37.244260000000004],[-121.79705000000001,37.24439],[-121.79715000000002,37.244730000000004],[-121.79732000000001,37.24501],[-121.79761,37.24533],[-121.79771000000001,37.24539],[-121.79775000000001,37.245450000000005],[-121.79780000000001,37.245470000000005],[-121.79789000000001,37.245470000000005],[-121.79797,37.245430000000006],[-121.79805,37.24535],[-121.79813000000001,37.24522],[-121.79813000000001,37.245180000000005],[-121.79808000000001,37.24512],[-121.79799000000001,37.24506],[-121.79789000000001,37.24506]]}}]}
